the_geom,OBJECTID,BusinessAddress,BusinessName,BusinessStartDate,BusinessType,City,LocationX,LocationY,State,Suite,Zip
POINT (-90.071030376898 29.95488864286),124,921 CANAL ST,THE RITZ CARLTON HOTEL CO LLC,2000-10-01,4701 - HOTELS (EXC CASINO HOTELS) & MOTELS,NEW ORLEANS,3680566.91771,531286.97037,LA,,70112
POINT (-90.073969129731 29.971202236413),377,1210 N GALVEZ ST,ACCESSORY B&B,2023-07-25,4703 - BED & BREAKFAST INNS,NEW ORLEANS,3679571.14485,537208.9634,LA,,70116
POINT (-90.074462750216 29.940925532513),26,1225 ST CHARLES AVE,THE QUISBY,2016-11-17,4701 - HOTELS (EXC CASINO HOTELS) & MOTELS,NEW ORLEANS,3679535.82018,526197.515134,LA,,70130
POINT (-90.062056933203 29.969158643396),158,1724 MARAIS ST,Lâ€™AUBERGE PLACAGE,2023-12-07,4703 - BED & BREAKFAST INNS,NEW ORLEANS,3683350.83759,536507.483847,LA,,70116
POINT (-90.074806737681 29.954144572852),191,212 LOYOLA AVE,SONESTA ES SUITES NEW OLEANS,2019-12-09,4701 - HOTELS (EXC CASINO HOTELS) & MOTELS,NEW ORLEANS,3679374.08296,531003.245378,LA,,70112
POINT (-89.989837336823 30.013715345256),122,8310 CHEF MENTEUR HWY,ECONOMY INN,1996-11-25,"4704 - TRAVELER ACCOMMODATION, ALL OTH",NEW ORLEANS,3706026.2442,552970.789591,LA,,70126
POINT (-90.07430720618 29.937809986205),282,1518 PRYTANIA ST,FAIRCHILD HOUSE,1994-04-01,4701 - HOTELS (EXC CASINO HOTELS) & MOTELS,NEW ORLEANS,3679597.52936,525065.130621,LA,,70130
POINT (-90.07011423342 29.95075658391),148,360 ST CHARLES AVE,RESIDENCE INN BY MARRIOT,2019-07-08,4701 - HOTELS (EXC CASINO HOTELS) & MOTELS,NEW ORLEANS,3680873.58472,529787.599297,LA,,70130
POINT (-90.0570064503 29.967243655989),299,930 ELYSIAN FIELDS AVE,ELYSAIN FIELDS INN,2015-08-03,4703 - BED & BREAKFAST INNS,NEW ORLEANS,3684957.62831,535828.899655,LA,,70117
POINT (-89.973411541365 30.035524781272),67,5801 READ BLVD,"COUNTRY INN & SUITES,NEW ORLEANS I-10 EAST",2019-02-15,4701 - HOTELS (EXC CASINO HOTELS) & MOTELS,NEW ORLEANS,3711130.32971,560962.831134,LA,,70127
POINT (-90.076989294557 29.951922709288),34,12340 I -10 SERVICE RD,TRIDENT INN AND SUITES,2019-10-11,4701 - HOTELS (EXC CASINO HOTELS) & MOTELS,NEW ORLEANS,3678691.8167,530187.70942,LA,,70128
POINT (-90.065547194647 29.956227745827),279,621 ST LOUIS ST,ROYAL ORLEANS HOTEL,1987-12-01,4701 - HOTELS (EXC CASINO HOTELS) & MOTELS,NEW ORLEANS,3682297.81064,531793.086915,LA,,70130
POINT (-90.060376964851 29.965264034992),5,1830 DAUPHINE ST,1830 DAUPHINE HOUSE,1999-07-21,4703 - BED & BREAKFAST INNS,NEW ORLEANS,3683898.46607,535097.164806,LA,,70116
POINT (-90.076989294557 29.951922709288),271,1600 CANAL STREET,SPRINGHILL SUITES BY MARRIOTT NEW ORLEANS,2022-01-13,4701 - HOTELS (EXC CASINO HOTELS) & MOTELS,NEW ORLEANS,3678691.8167,530187.70942,LA,,70112
POINT (-90.072469550315 29.940824018925),359,1133 MARGARET PL,MARGARET PLACE,2019-11-02,4703 - BED & BREAKFAST INNS,NEW ORLEANS,3680167.4733,526167.541438,LA,,70130
POINT (-90.053345991567 29.963886215678),256,2425 CHARTRES ST,2425 CHARTRES ST LLC,2021-09-28,4703 - BED & BREAKFAST INNS,NEW ORLEANS,3686130.22671,534620.938694,LA,,70117
POINT (-90.070987854949 29.938929088365),273,1212 MAGAZINE ST,"1501 ORETHA CASTLE HALEY BLVD, LLC",2023-08-18,4703 - BED & BREAKFAST INNS,NEW ORLEANS,3680644.31823,525483.642749,LA,,70130
POINT (-90.066650096135 29.957695821063),210,541 BOURBON ST,FOUR POINTS BY SHERATON FRENCH QUARTER,1989-03-15,4701 - HOTELS (EXC CASINO HOTELS) & MOTELS,NEW ORLEANS,3681942.674,532323.070467,LA,,70130
POINT (-90.065392147396 29.939467086647),72,1148 S PETERS ST,SEXTANT STAYS,2021-03-25,4701 - HOTELS (EXC CASINO HOTELS) & MOTELS,NEW ORLEANS,3682414.34952,525698.845693,LA,,70130
POINT (-90.066592216715 29.966048747773),4,1303 GOVERNOR NICHOLLS ST,MONROSE ROW B & B,1998-01-07,4703 - BED & BREAKFAST INNS,NEW ORLEANS,3681927.42216,535360.707078,LA,,70116
POINT (-90.073981624158 29.938764903539),215,1415 PRYTANIA ST,1415 CREOLE GARDENS,2001-10-26,4701 - HOTELS (EXC CASINO HOTELS) & MOTELS,NEW ORLEANS,3679696.82831,525413.506301,LA,,70130
POINT (-90.043848393842 29.966131598176),153,3132 N RAMPART ST,OBEAH GUESTHOUSE,2021-12-17,4703 - BED & BREAKFAST INNS,NEW ORLEANS,3689128.22966,535471.158854,LA,,70117
POINT (-90.067841006151 29.957929592979),336,509 DAUPHINE ST,AUDUBON COTTAGES,2011-10-05,4701 - HOTELS (EXC CASINO HOTELS) & MOTELS,NEW ORLEANS,3681564.63752,532403.911875,LA,,70116
POINT (-90.067237009774 29.956051771703),112,717 CONTI ST,HOTEL LE MARAIS,2018-12-18,4701 - HOTELS (EXC CASINO HOTELS) & MOTELS,NEW ORLEANS,3681763.43541,531723.179843,LA,,70130
POINT (-90.057555478266 29.962324169705),367,417 FRENCHMEN ST,FRENCHMEN HOTEL,2022-02-15,4701 - HOTELS (EXC CASINO HOTELS) & MOTELS,NEW ORLEANS,3684803.71516,534038.056773,LA,,70116
POINT (-90.072187980123 29.950827784447),194,822 PERDIDO ST,SEXTANT STAYS,2021-01-21,4701 - HOTELS (EXC CASINO HOTELS) & MOTELS,NEW ORLEANS,3680216.60872,529806.256705,LA,,70112
POINT (-90.038145855578 29.961732566323),136,3810 ROYAL ST,ROYAL SUNSHINE,2015-11-04,4703 - BED & BREAKFAST INNS,NEW ORLEANS,3690951.844,533891.875653,LA,,70117
POINT (-90.076989294557 29.951922709288),145,334 O KEEFE AVE,HOLIDAY INN EXPRESS,2017-12-01,4701 - HOTELS (EXC CASINO HOTELS) & MOTELS,NEW ORLEANS,3678691.8167,530187.70942,LA,,70112
POINT (-89.996208296137 30.019176257535),160,4700 VIOLA ST,"THE BREWER HOUSE FOR SECOND CHANCES, LLC",2024-02-16,4702 - ROOMING & BOARDING HOUSES,NEW ORLEANS,3703986.87511,554932.997912,LA,,70126
POINT (-89.962520002656 30.048633972021),165,7051 BULLARD AVE,COMFORT SUITES,2002-01-01,4701 - HOTELS (EXC CASINO HOTELS) & MOTELS,NEW ORLEANS,3714519.34565,565770.890339,LA,,70128-2307
POINT (-90.093971085683 29.927114539085),150,3626 ST CHARLES AVE,HAMPTON INN NEW ORLEANS-ST.CHARLES AVE./GARDEN DIS,2022-01-01,4701 - HOTELS (EXC CASINO HOTELS) & MOTELS,NEW ORLEANS,3673411.84174,521107.980217,LA,,70115
POINT (-90.09343586246 29.928021669112),89,3535 ST CHARLES AVE,HUBBARD MANSION BED & BREAKFAST,2002-01-01,4703 - BED & BREAKFAST INNS,NEW ORLEANS,3673577.80142,521439.679737,LA,,70115
POINT (-90.076989294557 29.951922709288),258,705 COMMON STREET,INDIGO ST. CHARLES,2021-12-28,4701 - HOTELS (EXC CASINO HOTELS) & MOTELS,NEW ORLEANS,3678691.8167,530187.70942,LA,,70130
POINT (-90.072633427814 29.952092287359),186,317 BARONNE ST,NOPSI HOTEL,2018-11-06,4701 - HOTELS (EXC CASINO HOTELS) & MOTELS,NEW ORLEANS,3680070.49019,530264.524289,LA,,70112
POINT (-90.068000580644 29.955654459927),130,300 BOURBON ST,ROYAL SONESTA HOTEL,2012-06-01,4701 - HOTELS (EXC CASINO HOTELS) & MOTELS,NEW ORLEANS,3681523.24488,531576.031683,LA,,70130
POINT (-90.065567895328 29.967504413493),86,1261 ESPLANADE AVE,CHATEAU ESPLANADE,1994-06-21,4701 - HOTELS (EXC CASINO HOTELS) & MOTELS,NEW ORLEANS,3682245.88655,535893.628039,LA,,70116
POINT (-90.101121315955 29.966236841885),58,3610 TULANE AVE,THE BEN LOUIE,2016-08-01,4701 - HOTELS (EXC CASINO HOTELS) & MOTELS,NEW ORLEANS,3670994.05703,535309.890694,LA,,70119
POINT (-90.076410588933 29.949541801152),355,601 LOYOLA AVE,HYATT REGENCY NEW ORLEANS,2019-05-07,4701 - HOTELS (EXC CASINO HOTELS) & MOTELS,NEW ORLEANS,3678884.56987,529323.933185,LA,,70113
POINT (-90.093971085683 29.927114539085),74,3626 ST CHARLES AVE,HAMPTON INN NEW ORLEANS-ST.CHARLES AVE./GARDEN DIS,2022-01-01,4701 - HOTELS (EXC CASINO HOTELS) & MOTELS,NEW ORLEANS,3673411.84174,521107.980217,LA,,70115
POINT (-90.052607810288 29.967722051008),259,2460 N RAMPART ST,AULD SWEET OLIVE BED & BREAKFAST,2022-01-24,4703 - BED & BREAKFAST INNS,NEW ORLEANS,3686348.36412,536018.401287,LA,,70117
POINT (-90.060394503769 29.965967249191),47,1526 PAUGER ST,LITTLE EAZY BED & BREAKFAST,2004-08-17,4703 - BED & BREAKFAST INNS,NEW ORLEANS,3683890.07209,535352.817926,LA,,70116
POINT (-90.051163594836 29.967776295863),179,2532 N RAMPART ST,"2532 N RAMPART STREET, LLC",2016-10-12,4703 - BED & BREAKFAST INNS,NEW ORLEANS,3686805.40278,536043.240199,LA,,70117
POINT (-90.076584176084 29.942093110185),207,1226 BARONNE ST,1226 BARONNE 2021 LLC,2022-11-11,4701 - HOTELS (EXC CASINO HOTELS) & MOTELS,NEW ORLEANS,3678859.30773,526614.71347,LA,,70113
POINT (-90.103116106041 29.929717704704),352,4417 DRYADES ST,BLUE LAGOON NOLA,2018-02-15,4701 - HOTELS (EXC CASINO HOTELS) & MOTELS,NEW ORLEANS,3670505.04142,522023.371578,LA,,70115
POINT (-90.076989294557 29.951922709288),105,1509 SAINT CHARLES AVE,HISTORIC STREETCAR INN,2017-02-03,4701 - HOTELS (EXC CASINO HOTELS) & MOTELS,NEW ORLEANS,3678691.8167,530187.70942,LA,,70130
POINT (-90.06817634301 29.955210999624),30,730 BIENVILLE ST,HOTEL MAZARIN,2018-12-18,4701 - HOTELS (EXC CASINO HOTELS) & MOTELS,NEW ORLEANS,3681469.36956,531414.158723,LA,,70130
POINT (-90.076989294557 29.951922709288),347,712 PELICAN ST,CASA PELICAN LLC,2016-01-26,4703 - BED & BREAKFAST INNS,NEW ORLEANS,3678691.8167,530187.70942,LA,,70114
POINT (-90.069719624619 29.957409242868),118,337 BURGUNDY ST,DAUZAT HOUSE,1992-09-01,4702 - ROOMING & BOARDING HOUSES,NEW ORLEANS,3680971.86677,532208.128515,LA,,70112
POINT (-90.046477050798 29.963821916074),374,3029 ROYAL ST,THE REDEMPTORY ON ROYAL,2023-05-08,4703 - BED & BREAKFAST INNS,NEW ORLEANS,3688305.37852,534621.917446,LA,,70117
POINT (-90.035151775419 29.963496063549),180,906 MAZANT ST,MAZANT HOLDING,2017-03-08,4703 - BED & BREAKFAST INNS,NEW ORLEANS,3691892.60329,534543.874757,LA,,70117
POINT (-90.067621256347 29.951096095671),55,201 MAGAZINE ST,HOSTEVA,2015-08-10,4701 - HOTELS (EXC CASINO HOTELS) & MOTELS,NEW ORLEANS,3681661.66914,529919.769985,LA,,70130
POINT (-90.104090820769 29.96743478511),143,3900 TULANE AVE,TULANE HOTEL GROUP,2017-07-26,4701 - HOTELS (EXC CASINO HOTELS) & MOTELS,NEW ORLEANS,3670049.17703,535735.410695,LA,,70119
POINT (-90.043980592425 29.9625251481),176,616 LOUISA ST,NOLA PLACE,2016-01-04,4703 - BED & BREAKFAST INNS,NEW ORLEANS,3689101.12988,534159.251141,LA,,70117
POINT (-90.099045431693 29.929284005624),218,1816 MARENGO ST,AIRYN MONET,2000-01-01,4703 - BED & BREAKFAST INNS,NEW ORLEANS,3671796.07163,521879.528762,LA,,70115
POINT (-90.099774818634 29.973262690926),92,120 S PIERCE ST,1896 O'MALLEY HOUSE,2005-04-01,4701 - HOTELS (EXC CASINO HOTELS) & MOTELS,NEW ORLEANS,3671392.88167,537869.347913,LA,,70119-6033
POINT (-90.075825270502 29.935848629254),78,1748 PRYTANIA ST,ST CHARLES GUEST HOUSE,1981-06-15,4703 - BED & BREAKFAST INNS,NEW ORLEANS,3679124.57064,524346.630908,LA,,70130
POINT (-90.075243150609 29.97358462261),315,2306 ESPLANADE AVE,DEGAS HOUSE,2021-09-30,4701 - HOTELS (EXC CASINO HOTELS) & MOTELS,NEW ORLEANS,3679158.27259,538070.858377,LA,,70119
POINT (-90.066730877996 29.963584911196),146,1129  ST PHILIP ST,NEW ORLEANS JAZZ QUARTERS,2018-03-01,4701 - HOTELS (EXC CASINO HOTELS) & MOTELS,NEW ORLEANS,3681893.42293,534464.278789,LA,,70116
POINT (-90.064408146445 29.960117530793),213,835 BOURBON ST,BON MAISON GUEST HOUSE,1999-01-01,4702 - ROOMING & BOARDING HOUSES,NEW ORLEANS,3682642.82792,533211.5481,LA,,70116
POINT (-90.072506677991 29.972343207163),163,2023 ESPLANADE AVE,ASHTON'S BED & BREAKFAST,1998-10-20,4701 - HOTELS (EXC CASINO HOTELS) & MOTELS,NEW ORLEANS,3680029.59739,537628.955528,LA,,70116
POINT (-90.071579680425 29.971695983053),324,1923 ESPLANADE AVE,H H WHITNEY HOUSE,1998-01-12,4703 - BED & BREAKFAST INNS,NEW ORLEANS,3680325.67701,537396.8306,LA,,70116
POINT (-90.085946951612 29.931216189033),284,2727 ST CHARLES AVE,THE GRAND VICTORIAN BED & BREAKFAST,1998-10-01,4701 - HOTELS (EXC CASINO HOTELS) & MOTELS,NEW ORLEANS,3675937.20494,522627.067898,LA,,70130
POINT (-90.074032810327 29.945015759962),366,888 BARONNE ST,THE BRANDYWINE BY SEXTANT,2021-07-11,4701 - HOTELS (EXC CASINO HOTELS) & MOTELS,NEW ORLEANS,3679655.63592,527686.366719,LA,,70113
POINT (-90.064929227322 29.95202507434),70,111 IBERVILLE ST,ONE11 HOTEL,2020-12-11,4701 - HOTELS (EXC CASINO HOTELS) & MOTELS,NEW ORLEANS,3682510.40828,530267.007105,LA,,70130
POINT (-90.12226773705 29.972354892217),102,9301 AIRLINE HWY,LONDON LODGE MOTEL,2015-04-23,4701 - HOTELS (EXC CASINO HOTELS) & MOTELS,NEW ORLEANS,3664275.14247,537463.271368,LA,,70118
POINT (-90.057889355726 29.964159031905),339,628 FRENCHMEN ST,SUITE JAZZ ON FRENCHMEN,2012-10-03,4703 - BED & BREAKFAST INNS,NEW ORLEANS,3684690.57161,534704.103686,LA,,70116
POINT (-90.064866220121 29.958973022211),244,717 ORLEANS AVE,BOURBON ORLEANS HOTEL,2021-07-01,4701 - HOTELS (EXC CASINO HOTELS) & MOTELS,NEW ORLEANS,3682502.39119,532793.756676,LA,,70116
POINT (-90.062331094255 29.965314076807),53,937 ESPLANADE AVE,MELROSE MANSION,2013-07-29,4701 - HOTELS (EXC CASINO HOTELS) & MOTELS,NEW ORLEANS,3683279.54261,535108.493446,LA,,70116
POINT (-90.1257975449 29.936034066074),334,7004 ST CHARLES AVE,PARKVIEW GUEST HOUSE,2010-01-01,4701 - HOTELS (EXC CASINO HOTELS) & MOTELS,NEW ORLEANS,3663296.78605,524243.819068,LA,,70118
POINT (-90.069165084396 29.956766903104),1,329 DAUPHINE ST,GRENOBLE HOUSE,1991-08-07,4701 - HOTELS (EXC CASINO HOTELS) & MOTELS,NEW ORLEANS,3681150.03816,531976.486915,LA,,70112
POINT (-90.064907294634 29.955957877568),304,508 CHARTRES ST,SONDER,2019-01-30,4701 - HOTELS (EXC CASINO HOTELS) & MOTELS,NEW ORLEANS,3682501.52213,531697.195331,LA,,70116
POINT (-90.05224642016 29.965950412811),95,2471 DAUPHINE ST,CREOLE INN RUE DAUPHINE,2009-03-17,4703 - BED & BREAKFAST INNS,NEW ORLEANS,3686469.98818,535375.44743,LA,,70117
POINT (-90.059858620463 29.968445905495),257,1919 ST CLAUDE AVE,NOLA ST CLAUDE,2021-11-01,4701 - HOTELS (EXC CASINO HOTELS) & MOTELS,NEW ORLEANS,3684049.72642,536256.034503,LA,,70116
POINT (-90.075691489886 29.957371259234),356,1500 CANAL ST,THE JUNG HOTELS & RESIDENCES-HOTEL,2019-04-01,4701 - HOTELS (EXC CASINO HOTELS) & MOTELS,NEW ORLEANS,3679081.04053,532173.512067,LA,,70112
POINT (-90.076592487626 29.976939173897),261,2545 BAYOU RD,2545 BAYOU ROAD,2022-04-22,4703 - BED & BREAKFAST INNS,NEW ORLEANS,3678717.69806,539286.013066,LA,,70119
POINT (-90.071979806472 29.943710181206),23,936 SAINT CHARLES AVE,THE HOTEL MODERN,2016-06-22,4701 - HOTELS (EXC CASINO HOTELS) & MOTELS,NEW ORLEANS,3680311.02203,527218.761855,LA,,70130
POINT (-90.084218554843 29.930440575312),71,2631 PRYTANIA ST,SULLY MANSION,2020-12-01,4701 - HOTELS (EXC CASINO HOTELS) & MOTELS,NEW ORLEANS,3676487.7172,522350.99001,LA,,70130
POINT (-90.035045746223 30.02507255295),25,6001 FRANCE RD,PONTCHARTRAIN LANDING,2016-11-09,4701 - HOTELS (EXC CASINO HOTELS) & MOTELS,NEW ORLEANS,3691672.46832,556935.786202,LA,,70126
POINT (-90.076989294557 29.951922709288),59,634 N. WHITE ST,CAMPECHE,2017-03-30,4703 - BED & BREAKFAST INNS,NEW ORLEANS,3678691.8167,530187.70942,LA,,70119
POINT (-90.055531003336 29.966721328857),235,2233 BURGUNDY ST,WELCOME ABROAD LLC,2018-05-23,4703 - BED & BREAKFAST INNS,NEW ORLEANS,3685426.8966,535644.168646,LA,,70117
POINT (-90.063523391704 29.949411561302),197,2 CANAL ST,TWO CANAL MASTER TENANT,2021-07-19,4701 - HOTELS (EXC CASINO HOTELS) & MOTELS,NEW ORLEANS,3682966.11842,529321.569345,LA,,70130
POINT (-90.070629927046 29.959733261182),360,501 BASIN ST,THE BRAKEMAN HOTEL,2020-02-04,4701 - HOTELS (EXC CASINO HOTELS) & MOTELS,NEW ORLEANS,3680674.30875,533050.050244,LA,,70112
POINT (-90.071414465823 29.937478601385),301,1332 MAGAZINE ST,THE TOWNHOUSE,2016-01-08,4703 - BED & BREAKFAST INNS,NEW ORLEANS,3680515.01647,524954.705533,LA,,70130
POINT (-90.071037002089 29.957912645397),232,317 N RAMPART ST,HOMEWOOD SUITES NEW ORLEANS FRENCH QUARTER,2017-04-04,4701 - HOTELS (EXC CASINO HOTELS) & MOTELS,NEW ORLEANS,3680552.70562,532386.586755,LA,,70112
POINT (-90.07273828513 29.934189676319),254,1507 MAGAZINE ST,HOTEL ST VINCENT,2021-05-06,4701 - HOTELS (EXC CASINO HOTELS) & MOTELS,NEW ORLEANS,3680108.90587,523754.118971,LA,,70130
POINT (-90.090818037712 29.980316616753),285,3626 DELGADO DR,THE LAUREL GUEST HOME,2001-03-02,4703 - BED & BREAKFAST INNS,NEW ORLEANS,3674200.76731,540465.066571,LA,,70119
POINT (-90.064887965337 29.945617374906),48,701 CONVENTION CENTER BLVD,OMNI RIVERFRONT HOTEL,2006-02-13,4701 - HOTELS (EXC CASINO HOTELS) & MOTELS,NEW ORLEANS,3682549.2685,527937.079423,LA,,70130
POINT (-90.073228679477 29.953510906255),354,210 O'KEEFE AVE,"MONARCH NEW ORLEANS, LP",2018-09-14,4701 - HOTELS (EXC CASINO HOTELS) & MOTELS,NEW ORLEANS,3679876.32213,530778.312898,LA,,70112
POINT (-90.058399631176 29.97040066542),183,1242 FRENCHMEN ST,FRENCHMEN OASIS,2017-05-25,4703 - BED & BREAKFAST INNS,NEW ORLEANS,3684503.75113,536971.994888,LA,,70116
POINT (-90.071372753002 29.95512156642),195,931 CANAL ST,THE SAINT NOLA HOTEL,2021-05-12,4701 - HOTELS (EXC CASINO HOTELS) & MOTELS,NEW ORLEANS,3680457.56949,531370.476034,LA,,70112
POINT (-90.055302971129 29.967292912444),287,929 MARIGNY ST,929 MARIGNY PAINTED LADY'S INN,2003-10-01,4703 - BED & BREAKFAST INNS,NEW ORLEANS,3685496.77769,535852.822599,LA,,70117
POINT (-90.079398308989 29.973102399781),323,2624 URSULINES AVE,CKW INC,1993-05-06,4702 - ROOMING & BOARDING HOUSES,NEW ORLEANS,3677844.68245,537881.083721,LA,,70119
POINT (-90.017773670882 30.008998044946),330,6050 CHEF MENTEUR HWY,MARDI GRAS RV PARK & MOTELS,2005-03-05,4701 - HOTELS (EXC CASINO HOTELS) & MOTELS,NEW ORLEANS,3697205.01143,551152.817493,LA,,70126
POINT (-90.052431938898 29.952292063418),214,335 PELICAN AVE,HOUSE OF THE RISING SUN,1999-06-03,4703 - BED & BREAKFAST INNS,NEW ORLEANS,3686466.77052,530408.117378,LA,,70114
POINT (-90.083137205751 29.93279525388),289,2409 ST CHARLES AVE,1851 INN ON ST CHARLES,2005-01-04,4703 - BED & BREAKFAST INNS,NEW ORLEANS,3676820.87445,523210.971707,LA,,70130
POINT (-90.074643014889 29.974160125824),107,2257 BAYOU RD,BENACHI HOUSE,2017-05-18,4703 - BED & BREAKFAST INNS,NEW ORLEANS,3679345.97474,538282.219913,LA,,70119
POINT (-90.067684365213 29.965381625879),3,1317 URSULINES AVE,EMPRESS HOTEL,1996-02-18,4701 - HOTELS (EXC CASINO HOTELS) & MOTELS,NEW ORLEANS,3681584.3053,535114.295366,LA,,70116
POINT (-90.076989294557 29.951922709288),270,222 LOYOLA AVE,222 LOYOLA TENANT,2024-04-03,4701 - HOTELS (EXC CASINO HOTELS) & MOTELS,NEW ORLEANS,3678691.8167,530187.70942,LA,,70112
POINT (-90.059220408923 29.963100970542),82,613 ESPLANADE AVE,JEAN LAFITTE HOUSE,1989-01-01,"4704 - TRAVELER ACCOMMODATION, ALL OTH",NEW ORLEANS,3684273.4038,534314.664581,LA,,70116-2018
POINT (-90.098877810743 29.924666104592),217,4117 PERRIER ST,MAISON PERRIER,2004-08-10,4703 - BED & BREAKFAST INNS,NEW ORLEANS,3671867.25467,520200.862968,LA,,70115
POINT (-90.097241552995 29.923813544338),87,1146 CONSTANTINOPLE ST,CHIMES BED & BREAKFAST (THE),1995-09-19,4703 - BED & BREAKFAST INNS,NEW ORLEANS,3672388.88775,519896.428664,LA,,70115
POINT (-90.076989294557 29.951922709288),91,712-14 SPAIN ST,PIERRE COULON GUEST HOUSE,2002-05-13,4703 - BED & BREAKFAST INNS,NEW ORLEANS,3678691.8167,530187.70942,LA,,70117
POINT (-90.067145256808 29.950388146544),66,427 GRAVIER ST,GRAVIER,2019-02-04,4701 - HOTELS (EXC CASINO HOTELS) & MOTELS,NEW ORLEANS,3681815.24776,529663.999105,LA,,70130
POINT (-90.066355594662 29.954500384619),293,316 CHARTRES ST,W FRENCH QUARTER HOTEL,2013-04-01,4701 - HOTELS (EXC CASINO HOTELS) & MOTELS,NEW ORLEANS,3682048.77532,531162.123394,LA,,70130
POINT (-90.064866220121 29.958973022211),313,717 ORLEANS AVE,BOURBON ORLEANS HOTEL,2021-08-13,4701 - HOTELS (EXC CASINO HOTELS) & MOTELS,NEW ORLEANS,3682502.39119,532793.756676,LA,,70116
POINT (-90.05165181464 29.939472440324),370,401 PARK BLVD,DENNIS GUEST HOUSE,2023-01-25,8806 - .1(43) BED AND BREAKFAST 1 TO 2 ROOMS,NEW ORLEANS,3686765.95049,525749.206909,LA,,70114
POINT (-90.074329386801 29.95410111404),368,1100 TULANE AVE,CANOPY NEW ORLEANS DOWNTOWN,2023-02-16,4701 - HOTELS (EXC CASINO HOTELS) & MOTELS,NEW ORLEANS,3679525.41359,530989.102722,LA,,70112
POINT (-90.099313705466 29.927248285829),252,4125 ST CHARLES AVE,THE CHLOE,2020-12-29,4701 - HOTELS (EXC CASINO HOTELS) & MOTELS,NEW ORLEANS,3671719.07156,521138.351225,LA,,70115
POINT (-90.00009731778 30.011894187622),267,7418 CHEF MENTEUR HWY,7418 CHEF MENTEUR LLC,2023-08-11,4701 - HOTELS (EXC CASINO HOTELS) & MOTELS,NEW ORLEANS,3702787.00727,552270.623318,LA,,70126
POINT (-90.070709310095 29.936587607779),319,1365 CONSTANCE ST,URBANIA HOUSE,2023-06-30,8807 - .1(43) BED AND BREAKFAST 3 TO 5 ROOMS,NEW ORLEANS,3680741.91727,524633.168316,LA,,70130
POINT (-90.076862132305 29.950725039864),230,1250 POYDRAS ST,HYATT HOUSE NEW ORLEANS DOWNTOWN,2015-10-29,4701 - HOTELS (EXC CASINO HOTELS) & MOTELS,NEW ORLEANS,3678736.86037,529752.634305,LA,,70113
POINT (-90.067321926293 29.951344003058),329,114 MAGAZINE ST,BEST WEST ST CHRIS HOTEL,2004-06-22,4701 - HOTELS (EXC CASINO HOTELS) & MOTELS,NEW ORLEANS,3681755.46101,530010.965505,LA,,70130
POINT (-90.066072321146 29.932823135549),302,1503 TCHOUPITOULAS ST,1503 GUEST HOUSE LLC,2016-02-01,4703 - BED & BREAKFAST INNS,NEW ORLEANS,3682225.65532,523280.484411,LA,,70130
POINT (-90.064293532986 29.955276176225),127,501 DECATUR ST,FRENCH MARKET INN,2011-05-16,4701 - HOTELS (EXC CASINO HOTELS) & MOTELS,NEW ORLEANS,3682698.61692,531451.455555,LA,,70130
POINT (-90.066629867051 29.952652800917),135,131 DECATUR ST,LA GALERIE,2015-10-20,4701 - HOTELS (EXC CASINO HOTELS) & MOTELS,NEW ORLEANS,3681969.35208,530489.314306,LA,,70130
POINT (-90.063998189889 29.960033338236),106,730 DUMAINE ST,FRENCH QUARTER MANSION BOUTIQUE HOTEL,2017-02-03,4701 - HOTELS (EXC CASINO HOTELS) & MOTELS,NEW ORLEANS,3682772.97532,533182.370372,LA,,70116
POINT (-90.070630707945 29.949076172895),337,500 ST CHARLES AVE,BLAKE HOTEL NEW ORLEANS,2011-10-24,4701 - HOTELS (EXC CASINO HOTELS) & MOTELS,NEW ORLEANS,3680716.76725,529174.737728,LA,,70130
POINT (-90.071875217665 29.952326455971),189,821 GRAVIER ST,HILTON GARDEN INN FRENCH QUARTER/CBD,2019-10-31,4701 - HOTELS (EXC CASINO HOTELS) & MOTELS,NEW ORLEANS,3680309.65109,530352.318978,LA,,70112
POINT (-90.055085405833 29.964315737923),228,625 MARIGNY ST,RIVER HOUSE NEW ORLEANS,2014-02-17,4703 - BED & BREAKFAST INNS,NEW ORLEANS,3685577.73929,534770.980742,LA,,70117
POINT (-90.076989294557 29.951922709288),275,740 MOUNTAIN VIEW AVE,SAXONY MANAGEMENT,2023-10-31,4701 - HOTELS (EXC CASINO HOTELS) & MOTELS,MONROVIA,3678691.8167,530187.70942,CA,,91016
POINT (-90.052478534789 29.966743931656),20,2466 BURGUNDY ST,MARIGNY JEWEL,2015-08-06,4703 - BED & BREAKFAST INNS,NEW ORLEANS,3686393.27042,535663.178439,LA,,70117
POINT (-90.057590382392 29.963109420389),333,519 FRENCHMEN ST,FESTIVA RESORTS,2007-09-21,4701 - HOTELS (EXC CASINO HOTELS) & MOTELS,NEW ORLEANS,3684789.48412,534323.479877,LA,,70116
POINT (-90.060797719504 29.963117058247),123,717 BARRACKS ST,ROYAL BARRACKS GUEST HOUSE,1997-04-14,4702 - ROOMING & BOARDING HOUSES,NEW ORLEANS,3683773.91612,534314.965125,LA,,70116
POINT (-90.074994380213 29.939050827809),316,1430 ST CHARLES AVE,SONDER USA,2021-11-29,4701 - HOTELS (EXC CASINO HOTELS) & MOTELS,NEW ORLEANS,3679374.93954,525513.955069,LA,,70130
POINT (-90.076989294557 29.951922709288),216,P.O. BOX 24127 ST,SCHIRO'S GUEST HOUSE,2003-01-02,4703 - BED & BREAKFAST INNS,NEW ORLEANS,3678691.8167,530187.70942,LA,,70184
POINT (-90.079078600379 29.959572651022),255,1800 CANAL ST,ORLEANS HOUSE LLC,2021-06-22,4701 - HOTELS (EXC CASINO HOTELS) & MOTELS,NEW ORLEANS,3677999.75579,532962.26458,LA,,70119
POINT (-90.065338332795 29.96422422151),237,1119 N RAMPART ST,FRENCH QUARTER SUITES,2018-11-14,4701 - HOTELS (EXC CASINO HOTELS) & MOTELS,NEW ORLEANS,3682331.76936,534701.63239,LA,,70116
POINT (-90.066177074167 29.94815462667),296,300 POYDRAS ST,LOEWS NEW ORLEANS HOTEL,2014-02-14,4701 - HOTELS (EXC CASINO HOTELS) & MOTELS,NEW ORLEANS,3682130.82364,528855.199296,LA,,70130
POINT (-90.069316363239 29.954718057734),125,800 IBERVILLE ST,HYATT FRENCH QUARTER,2008-07-01,4701 - HOTELS (EXC CASINO HOTELS) & MOTELS,NEW ORLEANS,3681110.35407,531230.922882,LA,,70112
POINT (-90.069511542556 29.976192993579),266,1630 N GALVEZ ST,BERNARDO DE GALVEZ INN,2023-03-06,8806 - .1(43) BED AND BREAKFAST 1 TO 2 ROOMS,NEW ORLEANS,3680962.41781,539039.329674,LA,,70116
POINT (-90.049282182934 29.964734559496),164,715 ST FERDINAND ST,KATE & DAVES BED & BREAKFAST,2001-04-18,4703 - BED & BREAKFAST INNS,NEW ORLEANS,3687413.4799,534943.823942,LA,,70117-7367
POINT (-90.076989294557 29.951922709288),31,1111 GRAVIER,THE TROUBADOUR,2019-06-20,4701 - HOTELS (EXC CASINO HOTELS) & MOTELS,NEW ORLEANS,3678691.8167,530187.70942,LA,,70112
POINT (-90.051746654688 29.951941802465),297,430 BERMUDA ST,MAISON TOURISTE,2015-02-12,4703 - BED & BREAKFAST INNS,NEW ORLEANS,3686685.19945,530283.176513,LA,,70114
POINT (-90.069369135422 29.966299058961),54,1520 URSULINES AVE,HISTORIC URSULINES COTTAGE,2014-10-23,4703 - BED & BREAKFAST INNS,NEW ORLEANS,3681047.18939,535442.019974,LA,,70116
POINT (-90.1052858803 29.937272627499),144,4545 MAGNOLIA ST,ALDER HOTEL UPTOWN,2017-08-03,4701 - HOTELS (EXC CASINO HOTELS) & MOTELS,NEW ORLEANS,3669788.35086,524763.249148,LA,,70115
POINT (-90.057465903641 29.963661620412),63,2109 CHARTRES ST,W.M.COX,2018-09-21,4703 - BED & BREAKFAST INNS,NEW ORLEANS,3684826.66185,534524.719109,LA,,70116
POINT (-90.030879904079 30.00775986906),80,5035 CHEF MENTEUR HWY,NEW ORLEANS INN,1986-03-17,"4704 - TRAVELER ACCOMMODATION, ALL OTH",NEW ORLEANS,3693062.23427,550655.183572,LA,,70126
POINT (-90.072405222504 29.955106311948),36,1016 CANAL ST,SONDER USA,2020-10-02,4701 - HOTELS (EXC CASINO HOTELS) & MOTELS,NEW ORLEANS,3680130.69384,531361.329858,LA,,70112
POINT (-90.073693277867 29.947676250849),379,710 BARONNE ST,SOUTH MARKET PROPERTIES LLC,2023-08-21,4701 - HOTELS (EXC CASINO HOTELS) & MOTELS,NEW ORLEANS,3679752.52629,528655.000128,LA,,70113
POINT (-90.06474426314 29.940016342494),309,1201 CONVENTION CENTER BLVD,HAMPTON INN & SUITES NEW ORLEANS-CONVENTION CENTER,2020-04-24,4701 - HOTELS (EXC CASINO HOTELS) & MOTELS,NEW ORLEANS,3682617.3261,525900.845757,LA,,70130
POINT (-90.092439479419 29.982954403334),168,1172 CITY PARK AVE,OAKVIEW BED & BREAKFAST,2009-02-16,4703 - BED & BREAKFAST INNS,NEW ORLEANS,3673677.07041,541418.70638,LA,,70119
POINT (-90.074284852325 29.944247354612),38,822 HOWARD AVE,SEXTANT STAYS,2021-12-13,4701 - HOTELS (EXC CASINO HOTELS) & MOTELS,NEW ORLEANS,3679578.88789,527406.069311,LA,,70113
POINT (-90.072656069827 29.951152110944),139,346 BARONNE ST,FAIRFIELD INN & SUITES,2016-06-08,4701 - HOTELS (EXC CASINO HOTELS) & MOTELS,NEW ORLEANS,3680067.08187,529922.562625,LA,,70112
POINT (-90.07166079606 29.953942824124),170,123 BARONNE ST,THE ROOSEVELT HOTEL WAC,2009-07-01,4701 - HOTELS (EXC CASINO HOTELS) & MOTELS,NEW ORLEANS,3680371.07893,530940.837378,LA,,70112
POINT (-90.073004188613 29.953819786659),190,925  COMMON ST,925 COMMON,2019-11-27,4701 - HOTELS (EXC CASINO HOTELS) & MOTELS,NEW ORLEANS,3679946.17397,530891.414786,LA,,70112
POINT (-90.079595636253 29.935081032745),104,2031 SAINT CHARLES AVE,APARIUM HOTEL GROUP,2016-05-24,4701 - HOTELS (EXC CASINO HOTELS) & MOTELS,NEW ORLEANS,3677933.48789,524054.419644,LA,STE #A,70130
POINT (-90.067736931761 29.954573486532),278,214 ROYAL ST,MONTELEONE HOTEL,1968-01-01,4701 - HOTELS (EXC CASINO HOTELS) & MOTELS,NEW ORLEANS,3681611.07157,531183.872066,LA,A,70130
POINT (-90.071682506104 29.946443994467),151,747 ST CHARLES AVE,LITTLE LAGNIAPPE HOTEL LLC,2024-01-05,4701 - HOTELS (EXC CASINO HOTELS) & MOTELS,NEW ORLEANS,3680394.22895,528213.912448,LA,,70130
POINT (-89.977041720886 30.015817209788),224,9300 CHEF MENTEUR HWY,WEBBER'S MOTEL,2012-08-06,4701 - HOTELS (EXC CASINO HOTELS) & MOTELS,NEW ORLEANS,3710066.57937,553782.809815,LA,,70127
POINT (-90.074331791275 29.95643134643),364,1300 CANAL ST,HAMPTON INN,2021-04-27,4701 - HOTELS (EXC CASINO HOTELS) & MOTELS,NEW ORLEANS,3679515.34165,531836.453187,LA,,70112
POINT (-90.081596304526 29.93506851385),272,1700 JACKSON AVE,LIONS GATE MANSION,2021-02-26,4703 - BED & BREAKFAST INNS,NEW ORLEANS,3677299.88827,524042.939708,LA,,70113
POINT (-90.095314065257 29.967998037854),85,300 S NORMAN C FRANCIS PKWY,ENTROPY ROOMS,1992-04-12,4702 - ROOMING & BOARDING HOUSES,NEW ORLEANS,3672825.83284,535970.148551,LA,,70119-6232
POINT (-90.061201295252 29.960188062613),96,1024 CHARTRES ST,HOTEL PROVINCIAL,2011-09-20,4701 - HOTELS (EXC CASINO HOTELS) & MOTELS,NEW ORLEANS,3683657.95733,533248.455172,LA,,70116
POINT (-90.074605028815 29.980502181533),343,1653 N BROAD ST,NEW ORLEANS FESTIVAL HOUSE,2014-10-20,4703 - BED & BREAKFAST INNS,NEW ORLEANS,3679332.66651,540588.565323,LA,STE 100,70119
POINT (-90.083174108366 29.928456846315),52,2705 CHESTNUT ST,PARKS BOWMAN HOUSE,2013-07-03,8807 - .1(43) BED AND BREAKFAST 3 TO 5 ROOMS,NEW ORLEANS,3676826.39893,521633.242745,LA,,70130
POINT (-90.052465588485 29.963927978386),376,2515 CHARTRES ST,LIONS INN,2023-07-14,4703 - BED & BREAKFAST INNS,NEW ORLEANS,3686408.81634,534639.240134,LA,,70117
POINT (-90.067532540305 29.959941786002),128,1005 ST PETER ST,ST. PETER GUEST HOUSE,2011-07-01,4701 - HOTELS (EXC CASINO HOTELS) & MOTELS,NEW ORLEANS,3681654.22882,533136.698692,LA,,70116
POINT (-90.054851653216 29.96547029141),121,2316 DAUPHINE ST,LA DAUPHINE,1996-11-15,4703 - BED & BREAKFAST INNS,NEW ORLEANS,3685647.06697,535191.64455,LA,,70117
POINT (-90.073202680273 29.950427931497),220,901 POYDRAS ST,HOMEWOOD SUITES - NEW ORLEANS,2006-12-14,4701 - HOTELS (EXC CASINO HOTELS) & MOTELS,NEW ORLEANS,3679896.88411,529657.320385,LA,,70112
POINT (-90.067909926374 29.950209132108),157,315 MAGAZINE ST,"THE ELIZA JANE HOTEL, COUVANT AND THE PRESSROOM",2023-12-04,4701 - HOTELS (EXC CASINO HOTELS) & MOTELS,NEW ORLEANS,3681573.81852,529596.227969,LA,,70130
POINT (-90.070167028852 29.951453096874),251,301 ST CHARLES AVE,"SONDER USA, INC",2020-01-01,4701 - HOTELS (EXC CASINO HOTELS) & MOTELS,NEW ORLEANS,3680854.07381,530040.692737,LA,,70130
POINT (-90.06954853503 29.95238445141),162,124 ST CHARLES AVE,COURTYARD BY MARRIOTT IMB-[H/P],1995-09-01,4701 - HOTELS (EXC CASINO HOTELS) & MOTELS,NEW ORLEANS,3681046.1949,530381.527042,LA,,70130
POINT (-90.082634894897 29.934406902019),281,2253 CARONDELET ST,MARQUETTE HOUSE HOTEL,1991-02-25,4701 - HOTELS (EXC CASINO HOTELS) & MOTELS,NEW ORLEANS,3676973.57262,523798.761339,LA,,70130
POINT (-90.06597019845 29.965586088596),248,1211 GOVERNOR NICHOLLS ST,PENELOPE B B,2019-05-01,4703 - BED & BREAKFAST INNS,NEW ORLEANS,3682126.22677,535194.644486,LA,,70116
POINT (-90.051566932677 29.966958934816),236,2513 BURGUNDY ST,THE BURGUNDY BED AND BREAKFAST,2018-05-29,4703 - BED & BREAKFAST INNS,NEW ORLEANS,3686681.0253,535744.589127,LA,,70117
POINT (-90.066296307855 29.944808973076),65,315 JULIA ST,EMBASSY SUITES CONVENTION CENTER,2018-12-14,4701 - HOTELS (EXC CASINO HOTELS) & MOTELS,NEW ORLEANS,3682106.51797,527638.180735,LA,,70130
POINT (-90.061433776878 29.961016484614),7,623 URSULINES AVE,HAUNTED HOTEL ON URSULINES-HOTEL,2006-04-26,4702 - ROOMING & BOARDING HOUSES,NEW ORLEANS,3683581.0006,533548.882693,LA,,70116
POINT (-90.072159932624 29.948409584778),103,600 CARONDELET ST,ACE HOTEL,2016-03-08,4701 - HOTELS (EXC CASINO HOTELS) & MOTELS,NEW ORLEANS,3680235.16879,528927.008512,LA,,70130
POINT (-90.076012485804 29.94290593822),199,1130 BARONNE ST,1130 BARONNE,2021-02-11,4701 - HOTELS (EXC CASINO HOTELS) & MOTELS,NEW ORLEANS,3679037.1165,526912.273726,LA,,70113
POINT (-90.065211596976 29.953933031404),113,320 DECATUR ST,BIENVILLE HOUSE MOTOR HOTEL,1974-01-01,4701 - HOTELS (EXC CASINO HOTELS) & MOTELS,NEW ORLEANS,3682413.31324,530959.820226,LA,A,70130
POINT (-90.065729264635 29.948295370012),290,228 POYDRAS ST,HARRAH'S POYDRAS HOTEL,2006-09-17,2060 - CASINO HOTELS,NEW ORLEANS,3682272.06844,528907.947328,LA,,70130
POINT (-90.031820598016 30.006635224611),341,4950 CHEF MENTEUR HWY,ROYAL INN OF NEW ORLEANS,2013-01-05,4701 - HOTELS (EXC CASINO HOTELS) & MOTELS,NEW ORLEANS,3692769.16221,550242.836884,LA,,70126
POINT (-90.094219802899 29.927012049389),24,3636 SAINT CHARLES AVE,ST. CHARLES INN - SUPERIOR HOTEL,2016-08-18,4701 - HOTELS (EXC CASINO HOTELS) & MOTELS,NEW ORLEANS,3673333.46516,521069.859257,LA,,70115
POINT (-90.055116644496 29.965183431699),225,723 MARIGNY ST,723 MARIGNY,2012-10-03,4703 - BED & BREAKFAST INNS,NEW ORLEANS,3685564.32834,535086.395846,LA,,70117
POINT (-90.076989294557 29.951922709288),263,1805/1809 MAGAZINE ST,TERRAVET REAL ESTATE FUND III LP,2022-06-22,4702 - ROOMING & BOARDING HOUSES,NEW ORLEANS,3678691.8167,530187.70942,LA,,70130
POINT (-90.067278462076 29.946070399972),286,700 TCHOUPITOULAS ST,RENAISSANCE ARTS HOTEL,2003-08-18,4701 - HOTELS (EXC CASINO HOTELS) & MOTELS,NEW ORLEANS,3681790.4134,528093.443135,LA,,70130
POINT (-90.053119576834 29.964713797121),288,2438 ROYAL ST,ROYAL STREET COURTYARD,2004-08-02,4701 - HOTELS (EXC CASINO HOTELS) & MOTELS,NEW ORLEANS,3686198.55337,534922.67847,LA,,70117
POINT (-90.074406544216 29.973148605114),223,2216 ESPLANADE AVE,LA BELLE ESPLANADE,2012-06-29,4703 - BED & BREAKFAST INNS,NEW ORLEANS,3679424.8813,537915.214793,LA,,70119
POINT (-90.096705020591 29.971491673283),172,3620 CANAL ST,CANAL STREET INN,2011-10-24,4701 - HOTELS (EXC CASINO HOTELS) & MOTELS,NEW ORLEANS,3672371.72487,537235.813256,LA,,70119
POINT (-90.06627177124 29.949800254419),49,300 GRAVIER ST,WINDSOR COURT HOTEL,2009-10-01,4701 - HOTELS (EXC CASINO HOTELS) & MOTELS,NEW ORLEANS,3682094.21813,529453.277569,LA,,70130
POINT (-90.03647228161 29.965177117934),21,1025 ALVAR ST,BY H20 BEAUTY,2015-09-10,4703 - BED & BREAKFAST INNS,NEW ORLEANS,3691467.57654,535150.43239,LA,,70117
POINT (-90.03215560337 30.006416353297),42,4940 CHEF MENTEUR HWY,ECONO LODGE,2001-10-10,4701 - HOTELS (EXC CASINO HOTELS) & MOTELS,NEW ORLEANS,3692664.04035,550162.042772,LA,,70126-5016
POINT (-90.066382683685 29.962467739016),320,920 N RAMPART ST,BEST WESTERN FRENCH QUARTER   LANDMARK HOTEL,1981-01-01,4701 - HOTELS (EXC CASINO HOTELS) & MOTELS,NEW ORLEANS,3682008.16271,534059.252613,LA,,70116
POINT (-90.041734284294 29.962294034348),184,631 DESIRE ST,631 DESIRE LLC,2017-05-31,4703 - BED & BREAKFAST INNS,NEW ORLEANS,3689813.32739,534083.220229,LA,,70117
POINT (-90.063549252453 29.961286309335),61,1003 BOURBON ST,LAFITTE GUEST HOUSE,2017-08-30,4701 - HOTELS (EXC CASINO HOTELS) & MOTELS,NEW ORLEANS,3682910.07733,533639.572101,LA,,70116
POINT (-90.075502681535 29.966105510753),280,1931 ORLEANS AVE,R & B ROOMS,1988-01-01,4702 - ROOMING & BOARDING HOUSES,NEW ORLEANS,3679105.96098,535350.26855,LA,,70116
POINT (-90.072310244053 29.935318290793),46,1441 MAGAZINE ST,TERRELL HOUSE,2004-03-26,4703 - BED & BREAKFAST INNS,NEW ORLEANS,3680239.9588,524166.015356,LA,,70130
POINT (-90.053854942016 29.963463640565),109,527 MANDEVILLE ST,CHATEAU MANAGEMENT,2018-07-10,4703 - BED & BREAKFAST INNS,NEW ORLEANS,3685970.79548,534465.475141,LA,,70117
POINT (-90.09171946465 29.936925192705),209,2836 LASALLE ST,DEW DROP INN,2023-12-13,4701 - HOTELS (EXC CASINO HOTELS) & MOTELS,NEW ORLEANS,3674086.37339,524683.212412,LA,,70115
POINT (-90.067180212506 29.9485129285),247,501 TCHOUPITOULAS ST,HOTEL FONTENOT,2019-08-08,4701 - HOTELS (EXC CASINO HOTELS) & MOTELS,NEW ORLEANS,3681811.71298,528981.979328,LA,,70130
POINT (-90.06627177124 29.949800254419),335,300 GRAVIER ST,WINDSOR COURT HOTEL,2009-10-01,4701 - HOTELS (EXC CASINO HOTELS) & MOTELS,NEW ORLEANS,3682094.21813,529453.277569,LA,,70130
POINT (-90.068943897336 29.951191437217),325,221 CAMP ST,INTERNATIONAL HOUSE HOTEL,2002-04-24,4701 - HOTELS (EXC CASINO HOTELS) & MOTELS,NEW ORLEANS,3681242.44879,529949.815745,LA,,70130
POINT (-90.072394720726 29.949763203769),126,820 POYDRAS ST,DRURY INN NEW ORLEANS,2009-02-16,4701 - HOTELS (EXC CASINO HOTELS) & MOTELS,NEW ORLEANS,3680155.40034,529418.415425,LA,,70112
POINT (-90.067772138144 29.966034493113),181,1123 MARAIS ST,MARAIS HOUSE,2017-03-28,4703 - BED & BREAKFAST INNS,NEW ORLEANS,3681553.89218,535351.395206,LA,,70116
POINT (-90.072292620639 29.934558485498),253,1476 MAGAZINE ST,TRAVELERS NEW ORLEANS,2021-04-05,4703 - BED & BREAKFAST INNS,NEW ORLEANS,3680248.58127,523889.78438,LA,,70130
POINT (-90.076989294557 29.951922709288),37,4180 OLD GENTILLY ROAD,DAYS INN,2021-11-10,4701 - HOTELS (EXC CASINO HOTELS) & MOTELS,NEW ORLEANS,3678691.8167,530187.70942,LA,,70126
POINT (-90.093834455632 29.930791726449),35,3435 DRYADES ST,MARSH HOTEL LLC,2020-08-07,4701 - HOTELS (EXC CASINO HOTELS) & MOTELS,NEW ORLEANS,3673440.65396,522445.607482,LA,,70115
POINT (-90.068224572429 29.950856927403),219,523 GRAVIER ST,LOFT 523,2002-04-24,4701 - HOTELS (EXC CASINO HOTELS) & MOTELS,NEW ORLEANS,3681471.57871,529830.689857,LA,,70130
POINT (-90.063293825977 29.94773526893),45,2 POYDRAS ST,HILTON N O RIVERSIDE HOTEL,2004-01-01,4701 - HOTELS (EXC CASINO HOTELS) & MOTELS,NEW ORLEANS,3683045.57205,528712.8144,LA,2ND FL,70130
POINT (-90.076989294557 29.951922709288),277,2301-2329 BURGUNDY ST,HOTEL PETER & PAUL,2024-03-27,4701 - HOTELS (EXC CASINO HOTELS) & MOTELS,NEW ORLEANS,3678691.8167,530187.70942,LA,,70117
POINT (-90.069292064203 29.952743720983),268,104 ST CHARLES AVE,THE RUBENSTEIN HOTEL,2024-01-02,4701 - HOTELS (EXC CASINO HOTELS) & MOTELS,NEW ORLEANS,3681125.96872,530513.066306,LA,,70130
POINT (-90.069023697038 29.95087409175),373,301 CAMP ST,LA QUINTA INNS & SUITES NEW ORLEANS DOWNTOWN,2023-04-21,4701 - HOTELS (EXC CASINO HOTELS) & MOTELS,NEW ORLEANS,3681218.45218,529834.138049,LA,,70130
POINT (-90.059335590127 29.963194693063),50,621 ESPLANADE AVE,LAMOTHE HOUSE,2012-05-27,4701 - HOTELS (EXC CASINO HOTELS) & MOTELS,NEW ORLEANS,3684236.55516,534348.340357,LA,,70130
POINT (-90.070003145272 29.97060378515),140,1731 ESPLANADE AVE,FIVE CONTINENTS,2016-07-27,4703 - BED & BREAKFAST INNS,NEW ORLEANS,3680829.19087,537005.166344,LA,,70116
POINT (-90.071999254562 29.95685453015),205,201 N RAMPART ST,"SONDER USA, INC.",2021-12-17,4701 - HOTELS (EXC CASINO HOTELS) & MOTELS,NEW ORLEANS,3680252.24763,531998.461507,LA,,70112
POINT (-90.052833571213 29.969713129618),307,2360 MARAIS ST,MAISON MARAIS,2019-12-02,8806 - .1(43) BED AND BREAKFAST 1 TO 2 ROOMS,NEW ORLEANS,3686268.79369,536741.632007,LA,,70117
POINT (-90.076989294557 29.951922709288),238,10020 I-10 SERVICE RD,QUALITY INN,2018-12-22,4701 - HOTELS (EXC CASINO HOTELS) & MOTELS,NEW ORLEANS,3678691.8167,530187.70942,LA,,70127
POINT (-89.986561309846 30.014255960337),198,8542 CHEF MENTEUR HWY,BUDGET INN EXPRESS,2020-04-28,4701 - HOTELS (EXC CASINO HOTELS) & MOTELS,NEW ORLEANS,3707060.68638,553179.547799,LA,,70127
POINT (-90.074979457547 29.928365002148),345,2125 LAUREL ST,OLD LA LA'S CREOLE COTTAGE,2015-09-30,4703 - BED & BREAKFAST INNS,NEW ORLEANS,3679422.33858,521628.256313,LA,,70130
POINT (-90.066109894166 29.950753816678),306,300 CANAL ST,DOUBLETREE HOTEL,2019-10-21,4701 - HOTELS (EXC CASINO HOTELS) & MOTELS,NEW ORLEANS,3682141.64501,529800.594625,LA,,70130
POINT (-90.062046621683 29.959956904195),171,612 ST PHILIP ST,ST. PHILIP FRENCH QUARTER APARTMENTS,2011-08-22,4701 - HOTELS (EXC CASINO HOTELS) & MOTELS,NEW ORLEANS,3683391.22671,533161.426756,LA,,70116
POINT (-90.057922288657 29.969081620645),32,1125 FRENCHMEN ST,FRENCHMEN HOUSE LLC,2019-08-30,4703 - BED & BREAKFAST INNS,NEW ORLEANS,3684660.2198,536494.022983,LA,,70116
POINT (-90.075864004842 29.942401267575),73,1730 CLIO ST,THE SYD,2021-03-19,4701 - HOTELS (EXC CASINO HOTELS) & MOTELS,NEW ORLEANS,3679086.15368,526729.273022,LA,,70113
POINT (-90.06620206928 29.948956531355),202,333 POYDRAS ST,LE MERIDIEN,2021-05-12,4701 - HOTELS (EXC CASINO HOTELS) & MOTELS,NEW ORLEANS,3682119.68354,529146.713216,LA,70130,70130
POINT (-90.060206584225 29.966952941799),348,1625 PAUGER ST,MARK & RON'S B&B,2016-08-29,8806 - .1(43) BED AND BREAKFAST 1 TO 2 ROOMS,NEW ORLEANS,3683945.58863,535711.913351,LA,,70116
POINT (-90.049846795547 29.965592580446),11,2711 DAUPHINE ST,ENGINE 24 FIREHOUSE,2011-03-10,4703 - BED & BREAKFAST INNS,NEW ORLEANS,3687231.21481,535253.828806,LA,,70117
POINT (-90.092236657555 29.968030521233),83,124 S LOPEZ ST,INDIA HOUSE BACKPACKERS HOTEL,1991-04-09,4701 - HOTELS (EXC CASINO HOTELS) & MOTELS,NEW ORLEANS,3673800.0578,535992.501319,LA,,70119
POINT (-90.076989294557 29.951922709288),8,2111 ST. CHARLES AVE,EXTRA HOLIDAYS,2007-02-06,4701 - HOTELS (EXC CASINO HOTELS) & MOTELS,NEW ORLEANS,3678691.8167,530187.70942,LA,,70130
POINT (-90.064902395749 29.967107644203),33,1227 ESPLANADE AVE,RATHBONE MANSIONS,2019-10-24,4701 - HOTELS (EXC CASINO HOTELS) & MOTELS,NEW ORLEANS,3682458.19132,535751.679879,LA,,70116
POINT (-90.069639715778 29.953868047271),295,739 CANAL ST,ASTOR CROWN PLAZA NEW ORLEANS ATTN: DIR. OF FIN.,2013-09-26,4701 - HOTELS (EXC CASINO HOTELS) & MOTELS,NEW ORLEANS,3681011.37141,530920.698434,LA,,70130
POINT (-90.076989294557 29.951922709288),233,2028-30 IBERVILLE ST,2028-30 IBERVILLE LLC,2017-12-04,4701 - HOTELS (EXC CASINO HOTELS) & MOTELS,NEW ORLEANS,3678691.8167,530187.70942,LA,,70112
POINT (-90.069007171369 29.950060234587),300,344 CAMP ST,QUEEN & CRESCENT HOTEL,2015-12-29,4701 - HOTELS (EXC CASINO HOTELS) & MOTELS,NEW ORLEANS,3681226.95074,529538.247873,LA,,70130
POINT (-90.059184708731 29.964351198401),110,1911 ROYAL ST,MASON D'OR,2018-07-24,4703 - BED & BREAKFAST INNS,NEW ORLEANS,3684279.65218,534769.419334,LA,,70116
POINT (-90.087100591432 29.925409769097),88,1221 HARMONY ST,MAISON LAFAYETTE,2000-02-08,4703 - BED & BREAKFAST INNS,NEW ORLEANS,3675594.77537,520511.667768,LA,,70115
POINT (-90.070448759559 29.955525345495),16,910 IBERVILLE ST,COURTYARD NEW ORLEANS DOWNTOWN/IBERVILLE,2012-09-19,4701 - HOTELS (EXC CASINO HOTELS) & MOTELS,NEW ORLEANS,3680748.53819,531520.528643,LA,,70130
POINT (-90.069417929215 29.956288057459),77,301 DAUPHINE ST,CHATEAU LEMOYNE  ATTN: FINANCE DEPT:,1979-01-15,4701 - HOTELS (EXC CASINO HOTELS) & MOTELS,NEW ORLEANS,3681071.89531,531801.477827,LA,,70112
POINT (-90.066409495852 29.96809426232),90,1333 ESPLANADE AVE,ANTEBELLUM GUEST HOUSE,2002-02-08,4703 - BED & BREAKFAST INNS,NEW ORLEANS,3681977.05096,536105.172103,LA,,70116
POINT (-90.059725621492 29.961903957193),149,1234 CHARTRES ST,LE RICHELIEU,2019-10-16,4701 - HOTELS (EXC CASINO HOTELS) & MOTELS,NEW ORLEANS,3684118.27682,533877.608325,LA,,70116
POINT (-90.055273143498 29.96403488155),166,612 MARIGNY ST,A CRESCENT CITY GUEST,2002-07-29,4703 - BED & BREAKFAST INNS,NEW ORLEANS,3685519.43606,534668.187974,LA,,70117
POINT (-90.071031221943 29.952146463083),75,226 CARONDELET ST,HAMPTON INN & SUITES NEW ORLEANS DOWNTOWN,2023-06-02,4701 - HOTELS (EXC CASINO HOTELS) & MOTELS,NEW ORLEANS,3680577.63528,530289.810113,LA,,70130
POINT (-90.076989294557 29.951922709288),245,1300 CANAL STREET,HOTEL VINACHE,2023-08-28,4701 - HOTELS (EXC CASINO HOTELS) & MOTELS,NEW ORLEANS,3678691.8167,530187.70942,LA,,70112
POINT (-90.071049069595 29.94774234342),12,600 ST CHARLES AVE,LAFAYETTE HOTEL,2011-05-16,4701 - HOTELS (EXC CASINO HOTELS) & MOTELS,NEW ORLEANS,3680589.62594,528688.248768,LA,,70130
POINT (-90.061569490579 29.960173558945),57,1001 CHARTRES ST,CHATEAU HOTEL,2016-05-18,4701 - HOTELS (EXC CASINO HOTELS) & MOTELS,NEW ORLEANS,3683541.43081,533241.886852,LA,,70130
POINT (-90.079078614122 29.935382875249),40,2001 ST CHARLES AVE,ST CHARLES COACH HOUSE,1998-03-01,4701 - HOTELS (EXC CASINO HOTELS) & MOTELS,NEW ORLEANS,3678096.03714,524165.972284,LA,SUITE 202,70130
POINT (-90.076989294557 29.951922709288),155,422 GRAVIER,422 GRAVIER,2023-07-25,4701 - HOTELS (EXC CASINO HOTELS) & MOTELS,NEW ORLEANS,3678691.8167,530187.70942,LA,,70130
POINT (-90.110689752048 29.930018276951),196,5200 DANNEEL ST,SYCAMORE HOUSE,2021-07-23,8807 - .1(43) BED AND BREAKFAST 3 TO 5 ROOMS,NEW ORLEANS,3668105.02324,522106.99513,LA,,70115
POINT (-90.070647048661 29.953253742059),369,127 CARONDELET ST,SEXTANT STAYS,2022-09-08,4701 - HOTELS (EXC CASINO HOTELS) & MOTELS,NEW ORLEANS,3680694.85199,530693.797954,LA,,70112
POINT (-90.057974215463 29.965126382161),17,726 FRENCHMEN ST,NONI'S NOLA ON FRENCHMAN,2013-12-03,4703 - BED & BREAKFAST INNS,NEW ORLEANS,3684659.78793,535055.56871,LA,,70116
POINT (-90.079616651532 29.927674393556),44,2418 MAGAZINE ST,GARDEN DISTRICT B & B,2003-07-25,4703 - BED & BREAKFAST INNS,NEW ORLEANS,3677956.30075,521361.025849,LA,,70130
POINT (-90.072047361399 29.94877189273),240,546 CARONDELET ST,MAISON DE LA LUZ,2019-01-01,4701 - HOTELS (EXC CASINO HOTELS) & MOTELS,NEW ORLEANS,3680269.36738,529059.14944,LA,,70130
POINT (-90.080990500845 29.934173298944),222,2203 ST CHARLES AVE,HOTEL INDIGO- BAR AND GARAGE,2012-12-28,4701 - HOTELS (EXC CASINO HOTELS) & MOTELS,NEW ORLEANS,3677495.31573,523719.503355,LA,,70130
POINT (-90.075200831425 29.937195016736),380,1625 PRYTANIA ST,OAB HOTELS,2023-10-31,4701 - HOTELS (EXC CASINO HOTELS) & MOTELS,NEW ORLEANS,3679316.96482,524838.397116,LA,,70130
POINT (-90.070278403843 29.950244964209),100,444 ST CHARLES AVE,INTER - CONTINENTAL ROOMS,2013-02-26,4701 - HOTELS (EXC CASINO HOTELS) & MOTELS,NEW ORLEANS,3680823.64776,529600.982337,LA,,70130
POINT (-90.067224893359 29.950961661234),363,444 COMMON ST,THE PELHAM HOTEL,2020-12-10,4701 - HOTELS (EXC CASINO HOTELS) & MOTELS,NEW ORLEANS,3681787.72476,529872.271553,LA,,70130
POINT (-90.054970095174 29.966832767709),353,2317 BURGUNDY ST,PETER AND PAUL HOTEL,2018-09-13,4701 - HOTELS (EXC CASINO HOTELS) & MOTELS,NEW ORLEANS,3685604.03804,535686.672647,LA,,70117
POINT (-90.074928252848 29.937062593321),274,1618 PRYTANIA ST,GRAY STREET HOTEL,2023-11-01,4701 - HOTELS (EXC CASINO HOTELS) & MOTELS,NEW ORLEANS,3679403.82242,524791.190844,LA,,70130
POINT (-90.067741906956 29.951911435443),321,500 CANAL ST,SHERATON NEW ORLEANS HOTEL,1982-10-31,4701 - HOTELS (EXC CASINO HOTELS) & MOTELS,NEW ORLEANS,3681620.18831,530215.835265,LA,,70130
POINT (-90.061359183222 29.960779726326),79,616 URSULINES AVE,HOTEL VILLA CONVENTO,1984-01-01,4701 - HOTELS (EXC CASINO HOTELS) & MOTELS,NEW ORLEANS,3683605.57532,533463.050756,LA,,70116
POINT (-90.07721943643 29.958353588649),371,1600 CANAL ST,SPRINGHILL SUITES NEW ORLEANS DOWNTOWN CANAL S,2023-02-20,4701 - HOTELS (EXC CASINO HOTELS) & MOTELS,NEW ORLEANS,3678593.30325,532525.416708,LA,,70112
POINT (-90.055124769273 29.965749671309),264,2301 DAUPHINE ST,EXCOGITATE LLC,2022-11-11,8806 - .1(43) BED AND BREAKFAST 1 TO 2 ROOMS,NEW ORLEANS,3685559.45929,535292.272582,LA,,70117
POINT (-90.072645383603 29.955258058112),69,1028 CANAL ST,HI-NEW ORLEANS HOSTELLING INTERNATIONAL USA,2019-08-14,4701 - HOTELS (EXC CASINO HOTELS) & MOTELS,NEW ORLEANS,3680054.03842,531415.673411,LA,,70112
POINT (-90.055947070016 29.966525689758),68,2222 BURGUNDY ST,MAISON GRACE,2019-03-27,4701 - HOTELS (EXC CASINO HOTELS) & MOTELS,NEW ORLEANS,3685295.95573,535571.558086,LA,,70117
POINT (-90.066109894166 29.950753816678),242,300 CANAL ST,DOUBLETREE NEW ORLEANS,2019-10-21,4701 - HOTELS (EXC CASINO HOTELS) & MOTELS,NEW ORLEANS,3682141.64501,529800.594625,LA,,70130
POINT (-90.065966026079 29.941700424411),10,1001 S PETERS ST,HG NEW ORLEANS CONVENTION CENTER,2010-11-17,4701 - HOTELS (EXC CASINO HOTELS) & MOTELS,NEW ORLEANS,3682223.61666,526508.956862,LA,,70130
POINT (-90.014476181453 30.009609908912),265,6322 CHEF MENTEUR HWY,SUPER 8,2022-11-15,4701 - HOTELS (EXC CASINO HOTELS) & MOTELS,NEW ORLEANS,3698246.04771,551387.310997,LA,,70126
POINT (-90.076989294557 29.951922709288),317,1600 CANAL STREET,TOWNEPLACE SUITES BY MARRIOTT NEW ORLEANS,2022-01-13,4701 - HOTELS (EXC CASINO HOTELS) & MOTELS,NEW ORLEANS,3678691.8167,530187.70942,LA,,70112
POINT (-90.067190433414 29.946824521229),350,632 TCHOUPITOULAS ST,CAMBRIA NEW ORLEANS DOWNTOWN,2017-08-24,4701 - HOTELS (EXC CASINO HOTELS) & MOTELS,NEW ORLEANS,3681815.26069,528367.977216,LA,,70130
POINT (-90.049479354914 29.968208348177),375,1028 PORT ST,GATOR BREAUX LLC,2023-06-13,8806 - .1(43) BED AND BREAKFAST 1 TO 2 ROOMS,NEW ORLEANS,3687336.89679,536206.321479,LA,,70117
POINT (-90.057637257826 29.972678953345),203,1502 ELYSIAN FIELDS AVE,NITEY NITE INN LLC,2021-07-03,4701 - HOTELS (EXC CASINO HOTELS) & MOTELS,NEW ORLEANS,3684735.89961,537803.151368,LA,,70116
POINT (-90.066904680096 29.960962357288),129,1013 ST ANN ST,CREOLE HOUSE,2011-07-01,4701 - HOTELS (EXC CASINO HOTELS) & MOTELS,NEW ORLEANS,3681848.93237,533510.012804,LA,,70116
POINT (-90.063205079217 29.959863194197),212,905 ROYAL ST,905 ROYAL HOTEL,1999-01-01,4701 - HOTELS (EXC CASINO HOTELS) & MOTELS,NEW ORLEANS,3683024.79112,533123.2825,LA,,70116
POINT (-90.076989294557 29.951922709288),188,P.O. BOX 24127,ESPLANADE GUEST HOUSE,2019-10-24,4703 - BED & BREAKFAST INNS,NEW ORLEANS,3678691.8167,530187.70942,LA,,70184
POINT (-90.074757594974 29.938243549404),246,1525 PRYTANIA ST,DREAMING TREE HOTEL,2023-10-31,4701 - HOTELS (EXC CASINO HOTELS) & MOTELS,NEW ORLEANS,3679453.15503,525221.222909,LA,,70130
POINT (-90.104023700944 29.94156635538),19,3110 NAPOLEON AVE,MARCELIN'S ON NAPOLEON,2015-01-13,4703 - BED & BREAKFAST INNS,NEW ORLEANS,3670171.3483,526328.89491,LA,,70125
POINT (-90.065324971827 29.967351659245),175,1247 ESPLANADE AVE,STATELY HOME GUEST HOUSE,2015-05-08,4703 - BED & BREAKFAST INNS,NEW ORLEANS,3682323.41461,535838.931975,LA,,70116
POINT (-90.080990500845 29.934173298944),51,2203 ST CHARLES AVE,HOTEL INDIGO NO GARDEN DISTRICT - MAIN,2012-10-15,4701 - HOTELS (EXC CASINO HOTELS) & MOTELS,NEW ORLEANS,3677495.31573,523719.503355,LA,,70130
POINT (-89.923857602779 30.031871306081),204,13552 CHEF MENTEUR HWY,RODEWAY INN & SUITES,2021-06-01,4701 - HOTELS (EXC CASINO HOTELS) & MOTELS,NEW ORLEANS,3726825.33881,559823.768925,LA,,70129
POINT (-90.071334523112 29.97099577429),14,1834 ESPLANADE AVE,LA RUE ESPLANADE,2012-07-23,4703 - BED & BREAKFAST INNS,NEW ORLEANS,3680406.09858,537143.063304,LA,,70116
POINT (-90.067216483252 29.958087296477),39,828 TOULOUSE ST,OLIVIER HOUSE HOTEL,1983-12-10,4701 - HOTELS (EXC CASINO HOTELS) & MOTELS,NEW ORLEANS,3681761.7565,532463.443396,LA,,70112
POINT (-90.073301739977 29.948987394393),312,550 BARONNE ST,VIRGIN HOTELS NEW ORLEANS,2021-07-19,4701 - HOTELS (EXC CASINO HOTELS) & MOTELS,NEW ORLEANS,3679871.27515,529133.143296,LA,,70113
POINT (-90.073969129731 29.971202236413),200,1210 N GALVEZ ST,TREME BLUE HOUSE EFILE,2021-02-01,4703 - BED & BREAKFAST INNS,NEW ORLEANS,3679571.14485,537208.9634,LA,,70119
POINT (-90.068511035872 29.950972201932),147,535 GRAVIER ST,ROYAL CRESCENT HOTEL,2018-05-11,4701 - HOTELS (EXC CASINO HOTELS) & MOTELS,NEW ORLEANS,3681380.40188,529871.606401,LA,,70130
POINT (-90.057590382392 29.963109420389),192,519 FRENCHMEN ST,FRENCHMEN ORLEANS AT 519,2020-04-22,4701 - HOTELS (EXC CASINO HOTELS) & MOTELS,NEW ORLEANS,3684789.48412,534323.479877,LA,,70116
POINT (-90.072228029035 29.934764124304),294,1466 MAGAZINE ST,CARRIE'S COOL PROPERTIES,2013-08-19,4703 - BED & BREAKFAST INNS,NEW ORLEANS,3680268.21583,523964.787068,LA,,70130
POINT (-90.079595636253 29.935081032745),138,2031 SAINT CHARLES AVE,PONTCHARTRAIN HOTEL,2016-06-03,4701 - HOTELS (EXC CASINO HOTELS) & MOTELS,NEW ORLEANS,3677933.48789,524054.419644,LA,,70130
POINT (-90.071341486204 29.953024746703),6,817 COMMON ST,RENAISSANCE PERE MARQUETTE,2001-10-19,4701 - HOTELS (EXC CASINO HOTELS) & MOTELS,NEW ORLEANS,3680475.86792,530608.104258,LA,B,70112
POINT (-90.067318764507 29.947885908781),174,535 TCHOUPITOULAS ST,THE OLD NO. 77 HOTEL & CHANDLERY - MAIN,2013-07-31,4701 - HOTELS (EXC CASINO HOTELS) & MOTELS,NEW ORLEANS,3681770.35599,528753.487296,LA,,70130
POINT (-90.089447647193 29.956286201868),159,2222 POYDRAS ST,DA EMPIRE,2024-01-30,4701 - HOTELS (EXC CASINO HOTELS) & MOTELS,NEW ORLEANS,3674729.46049,531731.397187,LA,,70119
POINT (-90.066044601603 29.964027748539),132,1118 URSULINES AVE,NEW ORLEANS GUEST HOUSE,2014-02-03,4701 - HOTELS (EXC CASINO HOTELS) & MOTELS,NEW ORLEANS,3682108.93615,534627.713606,LA,,70116
POINT (-90.066112965502 29.96927259788),178,1447 N VILLERE ST,FLORVILLE MANOR,2016-09-29,4703 - BED & BREAKFAST INNS,NEW ORLEANS,3682066.19778,536534.697031,LA,,70116
POINT (-90.068865472196 29.956773021373),322,335 DAUPHINE ST,TONY'S FRENCH QUARTER ROOMS,1988-09-01,4702 - ROOMING & BOARDING HOUSES,NEW ORLEANS,3681244.88546,531979.758723,LA,,70112
POINT (-90.063491708353 29.95865458849),81,625 ST ANN ST,PLACE D'ARMES HOTEL,1985-01-01,4701 - HOTELS (EXC CASINO HOTELS) & MOTELS,NEW ORLEANS,3682938.90351,532682.783108,LA,,70116-3212
POINT (-90.068402946205 29.957304754669),331,415 DAUPHINE ST,DAUPHINE ORLEANS HOTEL,2007-03-06,4701 - HOTELS (EXC CASINO HOTELS) & MOTELS,NEW ORLEANS,3681389.20968,532174.732931,LA,,70112
POINT (-90.065697388107 29.967126205934),349,1244 ESPLANADE AVE,RATHB0NE MANSIONS,2017-08-11,4701 - HOTELS (EXC CASINO HOTELS) & MOTELS,NEW ORLEANS,3682206.4084,535755.644103,LA,,70116
POINT (-90.064803889299 29.943255523782),167,859 CONVENTION CENTER BLVD,NEW ORLEANS MARRIOTT AT THE CONVENTION CENTER-[H/P,2005-07-06,4701 - HOTELS (EXC CASINO HOTELS) & MOTELS,NEW ORLEANS,3682585.40232,527078.519806,LA,,70130
POINT (-90.073228679477 29.953510906255),372,210 O'KEEFE AVE,MOXY NEW ORLEANS DOWNTOWN/FQR AREA,2023-04-14,4701 - HOTELS (EXC CASINO HOTELS) & MOTELS,NEW ORLEANS,3679876.32213,530778.312898,LA,,70112
POINT (-90.071320560751 29.955675918841),28,129 BURGUNDY ST,CHH-NOLA LLC,2018-01-16,4701 - HOTELS (EXC CASINO HOTELS) & MOTELS,NEW ORLEANS,3680471.87599,531572.241091,LA,,70112
POINT (-90.071211187 29.95235800261),344,221 CARONDELET ST,AC HOTEL NEW ORLEANS BOURBON/FRENCH QUARTER AREA,2015-08-20,4701 - HOTELS (EXC CASINO HOTELS) & MOTELS,NEW ORLEANS,3680519.79951,530366.105858,LA,,70130
POINT (-90.075070082075 29.95317032065),76,330 LOYOLA AVE,HOLIDAY INN DTN SUPERDOME HTM,1968-04-01,4701 - HOTELS (EXC CASINO HOTELS) & MOTELS,NEW ORLEANS,3679294.58299,530648.055362,LA,,70112
POINT (-90.065951746785 29.961692416766),226,911 BURGUNDY ST,HOTEL ST PIERRE,2013-03-27,4701 - HOTELS (EXC CASINO HOTELS) & MOTELS,NEW ORLEANS,3682147.72936,533778.825413,LA,,70116
POINT (-89.993591624827 30.012888239644),276,7930 CHEF MENTEUR HWY,GLENROSE MOTEL,2003-05-05,4701 - HOTELS (EXC CASINO HOTELS) & MOTELS,NEW ORLEANS,3704841.65419,552656.111766,LA,,70126-5344
POINT (-90.114705102096 30.020562489329),120,7214 PONTCHARTRAIN BLVD,ROSE MANOR,1998-05-20,4701 - HOTELS (EXC CASINO HOTELS) & MOTELS,NEW ORLEANS,3666483.04826,555018.894297,LA,,70124
POINT (-90.059387114379 29.970737628159),208,1311 TOURO ST,LAUREN FRED,2023-05-09,8806 - .1(43) BED AND BREAKFAST 1 TO 2 ROOMS,NEW ORLEANS,3684189.74594,537091.04948,LA,,70116
POINT (-90.074135917856 29.952934605727),358,300 S RAMPART ST,SONDER,2019-10-18,4701 - HOTELS (EXC CASINO HOTELS) & MOTELS,NEW ORLEANS,3679591.33845,530565.590402,LA,,70112
POINT (-90.078685972734 29.93384841463),137,2041 PRYTANIA ST,HENRY HOWARD HOTEL,2016-02-01,4701 - HOTELS (EXC CASINO HOTELS) & MOTELS,NEW ORLEANS,3678226.50318,523609.348539,LA,,70130
POINT (-90.066756287603 29.958408810222),161,827 TOULOUSE ST,HOTEL ST MARIE,1987-08-01,4701 - HOTELS (EXC CASINO HOTELS) & MOTELS,NEW ORLEANS,3681906.18293,532581.968004,LA,,70112-3421
POINT (-90.05411981842 29.966206122856),43,819 MANDEVILLE ST,SUNBURST INN,2002-08-08,4703 - BED & BREAKFAST INNS,NEW ORLEANS,3685875.79446,535461.806278,LA,,70117
POINT (-90.076989294557 29.951922709288),351,2036-38 IBERVILLE ST,2036-38 IBERVILLE,2017-12-04,4701 - HOTELS (EXC CASINO HOTELS) & MOTELS,NEW ORLEANS,3678691.8167,530187.70942,LA,,70112
POINT (-90.069433859271 29.966594888239),365,1531 URSULINES AVE,RE NEW ORLEANS PROPERTY MANAGEMENT,2021-04-26,4703 - BED & BREAKFAST INNS,NEW ORLEANS,3681025.50997,535549.368454,LA,,70116
POINT (-90.018175352561 30.010844644036),298,6061 CHEF MENTEUR HWY,MONTE CARLO MOTEL,2015-09-02,4701 - HOTELS (EXC CASINO HOTELS) & MOTELS,NEW ORLEANS,3697070.17898,551822.851414,LA,,70125
POINT (-90.06859372777 29.95317636328),201,623 CANAL ST,SONDER USA,2021-04-06,4701 - HOTELS (EXC CASINO HOTELS) & MOTELS,NEW ORLEANS,3681345.36917,530672.83117,LA,,70130
POINT (-90.037349449477 29.963622884509),142,3820 BURGUNDY ST,MAISON MACARTY,2017-05-22,4703 - BED & BREAKFAST INNS,NEW ORLEANS,3691196.23792,534582.114757,LA,,70117
POINT (-90.066867052273 29.952389236063),94,115 DECATUR ST,BLUEGREEN RESORTS MANAGEMENT,2008-07-01,4701 - HOTELS (EXC CASINO HOTELS) & MOTELS,NEW ORLEANS,3681895.3037,530392.642114,LA,,70130
POINT (-90.056185223 29.963710152976),234,601 ELYSIAN FIELDS AVE,"MAISON DES LUNES, LLC",2018-01-31,4703 - BED & BREAKFAST INNS,NEW ORLEANS,3685231.96367,534546.884613,LA,,70117
POINT (-90.065978482518 29.945567180836),185,727 S PETERS ST,THE MERCHANTILE HOTEL,2018-05-29,4701 - HOTELS (EXC CASINO HOTELS) & MOTELS,NEW ORLEANS,3682204.11989,527915.005567,LA,,70130
POINT (-90.070691096182 29.953145256777),152,131 CARONDELET ST,"SONDER USA, INC.",2021-11-29,4701 - HOTELS (EXC CASINO HOTELS) & MOTELS,NEW ORLEANS,3680681.33877,530654.194882,LA,,70112
POINT (-90.018299176046 30.008809254214),101,6042 CHEF MENTEUR HWY,BEST WAY INN & SUITES & TRAILOR PARK,2014-04-15,4701 - HOTELS (EXC CASINO HOTELS) & MOTELS,NEW ORLEANS,3697039.48599,551082.256597,LA,,70126
POINT (-90.076989294557 29.951922709288),241,8400 INTERSTATE 10 SERVICE RD,RODEWAY INN & SUITES,2019-05-01,4701 - HOTELS (EXC CASINO HOTELS) & MOTELS,NEW ORLEANS,3678691.8167,530187.70942,LA,,70127
POINT (-90.072350191007 29.953189730397),221,201 BARONNE ST,"DELTA PROFICIENT MANAGEMENT, LLC",2008-01-31,4701 - HOTELS (EXC CASINO HOTELS) & MOTELS,NEW ORLEANS,3680155.78946,530664.581762,LA,,70112
POINT (-90.065607684599 29.963926857581),303,1101 N RAMPART ST,NEW ORLEANS COURTYARD HOTEL,2018-11-14,4701 - HOTELS (EXC CASINO HOTELS) & MOTELS,NEW ORLEANS,3682247.68156,534592.556165,LA,,70116
POINT (-90.060350923058 29.964405312613),156,1421 BOURBON ST,LA MAISON BOURBON,2023-07-11,4703 - BED & BREAKFAST INNS,NEW ORLEANS,3683910.18069,534784.993094,LA,,70116
POINT (-90.058499565185 29.966380290861),283,2020 BURGUNDY ST,SUN OAK MUSEUM AND GUEST HOUSE,1995-02-22,4703 - BED & BREAKFAST INNS,NEW ORLEANS,3684488.37705,535509.685382,LA,,70116
POINT (-90.067909926374 29.950209132108),60,315 MAGAZINE ST,THE ELIZA JANE HOTEL,2016-11-29,4701 - HOTELS (EXC CASINO HOTELS) & MOTELS,NEW ORLEANS,3681573.81852,529596.227969,LA,,70130
POINT (-90.068488049798 29.938455963278),99,1216 ANNUNCIATION ST,FLEUR DE LIS MANSION,2013-02-15,4703 - BED & BREAKFAST INNS,NEW ORLEANS,3681437.92149,525320.328189,LA,,70130
POINT (-90.068735244775 29.949815205142),177,530 NATCHEZ ST,THE NATCHEZ NEW ORLEANS MT,2016-01-13,4701 - HOTELS (EXC CASINO HOTELS) & MOTELS,NEW ORLEANS,3681314.0454,529450.096385,LA,,70130
POINT (-90.062328323717 29.966422527418),133,1021 KERLEREC ST,MAISON DE LAGNIAPPE,2014-10-02,4703 - BED & BREAKFAST INNS,NEW ORLEANS,3683275.94882,535511.576966,LA,,70116
POINT (-90.066262057234 29.944508063638),41,300 JULIA ST,COURTYARD BY MARRIOTT #1MK-[H/P],1998-12-01,4701 - HOTELS (EXC CASINO HOTELS) & MOTELS,NEW ORLEANS,3682118.57461,527528.878975,LA,,70130
POINT (-90.063293825977 29.94773526893),229,2 POYDRAS ST,HILTON NEW ORLEANS RIVERSIDE,2015-04-01,4701 - HOTELS (EXC CASINO HOTELS) & MOTELS,NEW ORLEANS,3683045.57205,528712.8144,LA,,70130
POINT (-90.00009731778 30.011894187622),291,7418 CHEF MENTEUR HWY,A & C CORPORATION,2012-07-09,4701 - HOTELS (EXC CASINO HOTELS) & MOTELS,NEW ORLEANS,3702787.00727,552270.623318,LA,,70126
POINT (-90.065392147396 29.939467086647),311,1148 S PETERS ST,SEXTANT STAYS,2021-04-20,4701 - HOTELS (EXC CASINO HOTELS) & MOTELS,NEW ORLEANS,3682414.34952,525698.845693,LA,,70130
POINT (-90.075458867169 29.936345013228),187,1726 PRYTANIA ST,PARISIAN COURTYARD INN,2018-11-07,4703 - BED & BREAKFAST INNS,NEW ORLEANS,3679238.63496,524528.407612,LA,,70130
POINT (-90.076989294557 29.951922709288),108,2028-2030 ST. CLAUDE AVE,"LA FEMME FRANCAISE NATASHA, LLC",2018-01-31,4703 - BED & BREAKFAST INNS,NEW ORLEANS,3678691.8167,530187.70942,LA,,70116
POINT (-90.096151786999 29.927383990404),361,3811 ST CHARLES AVE,COLUMNS HOTEL,2020-04-07,4701 - HOTELS (EXC CASINO HOTELS) & MOTELS,NEW ORLEANS,3672720.05832,521198.497913,LA,,70115
POINT (-90.076989294557 29.951922709288),22,10100 I 10 SERVICE RD,WYNDHAM GARDEN HOTEL,2016-02-01,4701 - HOTELS (EXC CASINO HOTELS) & MOTELS,NEW ORLEANS,3678691.8167,530187.70942,LA,,70127
POINT (-90.062371823393 29.960555544893),173,1006 ROYAL ST,HOTEL ROYAL,2013-07-29,4701 - HOTELS (EXC CASINO HOTELS) & MOTELS,NEW ORLEANS,3683285.8404,533377.97242,LA,,70116
POINT (-90.07758573091 29.938505008465),227,1628 CARONDELET ST,AUBERGE NOUVELLE ORLEANS,2013-11-20,4703 - BED & BREAKFAST INNS,NEW ORLEANS,3678556.41762,525306.471549,LA,,70130
POINT (-89.997007796148 30.012493572035),18,7700 CHEF MENTEUR HWY,JACKS MOTEL,2014-02-10,4701 - HOTELS (EXC CASINO HOTELS) & MOTELS,NEW ORLEANS,3703762.2145,552499.971542,LA,,70126
POINT (-90.080124023729 29.94020551895),193,1615 ORETHA CASTLE HALEY BLVD,1615 OCH,2020-09-08,4701 - HOTELS (EXC CASINO HOTELS) & MOTELS,NEW ORLEANS,3677745.75694,525916.038077,LA,,70113
POINT (-90.07194136475 29.954729067405),211,108 UNIVERSITY PL,HOTEL MAISON PIERRE LAFITTE   LTD,1996-06-18,4701 - HOTELS (EXC CASINO HOTELS) & MOTELS,NEW ORLEANS,3680279.08687,531225.76621,LA,,70112
POINT (-90.014990454149 30.011025253479),305,6303 CHEF MENTEUR HWY,NOLA10LLC,2019-02-19,4701 - HOTELS (EXC CASINO HOTELS) & MOTELS,NEW ORLEANS,3698077.36887,551900.110806,LA,,70126
POINT (-90.066265825827 29.943192763607),327,301 ST JOSEPH ST,SPRINGHILL SUITES BY MARRIOTT H/P,2001-09-04,4701 - HOTELS (EXC CASINO HOTELS) & MOTELS,NEW ORLEANS,3682122.67036,527050.575294,LA,,70130
POINT (-90.038905800909 30.002426282839),310,4200 OLD GENTILLY RD,MOTEL 6,2020-12-09,4701 - HOTELS (EXC CASINO HOTELS) & MOTELS,NEW ORLEANS,3690544.05321,548686.902995,LA,,70126
POINT (-90.070396673337 29.950703585262),131,333 ST CHARLES AVE,HILTON NEW ORLEANS/ ST CHARLES AVENUE,2013-04-15,4701 - HOTELS (EXC CASINO HOTELS) & MOTELS,NEW ORLEANS,3680784.35733,529767.341121,LA,,70130
POINT (-90.072842234853 29.950295825755),134,833 POYDRAS ST,LE PAVILLON HOTEL HOTEL TAX,2015-07-24,4701 - HOTELS (EXC CASINO HOTELS) & MOTELS,NEW ORLEANS,3680011.55458,529610.537345,LA,,70112
POINT (-90.068410553748 29.959366089747),27,1001 TOULOUSE ST,MAISON DUPUY HOTEL,2017-07-06,4701 - HOTELS (EXC CASINO HOTELS) & MOTELS,NEW ORLEANS,3681378.5261,532924.284036,LA,,70112
POINT (-90.067696338741 29.950876130951),249,209 MAGAZINE ST,WYNDHAM LA BELLE MAISON,2019-07-01,4701 - HOTELS (EXC CASINO HOTELS) & MOTELS,NEW ORLEANS,3681638.77653,529839.520257,LA,,70130
POINT (-90.062264768102 29.961391205476),340,708 URSULINES AVE,INN ON URSULINES,2012-11-19,4701 - HOTELS (EXC CASINO HOTELS) & MOTELS,NEW ORLEANS,3683316.36706,533682.225413,LA,,70116
POINT (-90.087332630411 29.981443574541),206,1364 MOSS ST,"CATALYST DEVELOPMENT, LLC",2022-10-06,8807 - .1(43) BED AND BREAKFAST 3 TO 5 ROOMS,NEW ORLEANS,3675299.70606,540886.853899,LA,,70119
POINT (-90.072431854342 29.952687441436),141,225 BARONNE ST,ALOFT NEW ORLEANS DOWNTOWN,2017-04-26,4701 - HOTELS (EXC CASINO HOTELS) & MOTELS,NEW ORLEANS,3680131.93973,530481.64653,LA,,70112
POINT (-90.032025155602 29.96221617807),292,833 POLAND AVE,LOOKOUT INN NEW ORLEANS,2013-06-05,4701 - HOTELS (EXC CASINO HOTELS) & MOTELS,NEW ORLEANS,3692887.86205,534089.692165,LA,,70117
POINT (-90.050965741955 29.964821147652),154,2613 ROYAL ST,ROYAL RESIDENCE,2022-08-22,8806 - .1(43) BED AND BREAKFAST 1 TO 2 ROOMS,NEW ORLEANS,3686880.07241,534969.340806,LA,,70117
POINT (-90.034382304704 29.962788320096),262,832 FRANCE ST,GRIS GRIS GUESTHOUSE LLC,2022-05-18,4703 - BED & BREAKFAST INNS,NEW ORLEANS,3692139.15638,534289.274949,LA,,70117
POINT (-90.103116106041 29.929717704704),381,4417 DRYADES ST,"4417 DRYADES ST, LLC",2023-11-03,4703 - BED & BREAKFAST INNS,NEW ORLEANS,3670505.04142,522023.371578,LA,,70115
POINT (-90.059064815249 29.966881003432),346,919 TOURO ST,FLEUR DE MARIGNY,2016-01-01,4703 - BED & BREAKFAST INNS,NEW ORLEANS,3684307.38325,535689.772039,LA,,70116
POINT (-90.061966708277 29.96715665838),29,1744 N RAMPART ST,CHEZ PALMIERS BED & BREAKFAST,2018-02-09,4703 - BED & BREAKFAST INNS,NEW ORLEANS,3683387.4813,535779.804743,LA,,70116
POINT (-90.075699938498 29.942302180161),56,1724  CLIO ST,WG CREOLE HOUSE,2016-05-12,4703 - BED & BREAKFAST INNS,NEW ORLEANS,3679138.50799,526693.81171,LA,,70113
POINT (-90.055356312636 29.967739845506),15,1001 MARIGNY ST,OLDE TOWN INN,2012-04-01,4701 - HOTELS (EXC CASINO HOTELS) & MOTELS,NEW ORLEANS,3685478.07618,536015.155975,LA,,70117
POINT (-90.057052537667 29.967729541986),111,1008 ELYSIAN FIELDS AVE,BLUE60 GUEST HOUSE,2018-08-23,4703 - BED & BREAKFAST INNS,NEW ORLEANS,3684941.0685,536005.423239,LA,,70117
POINT (-90.064786315662 29.942493254238),62,881 CONVENTION CENTER BLVD,HYATT PLACE NEW ORLEANS CONVENTION CENTER,2018-02-07,4701 - HOTELS (EXC CASINO HOTELS) & MOTELS,NEW ORLEANS,3682594.03631,526801.392702,LA,,70130
POINT (-90.100213945326 29.965966774467),231,3522 TULANE AVE,THE DRIFTER HOTEL,2016-10-25,4701 - HOTELS (EXC CASINO HOTELS) & MOTELS,NEW ORLEANS,3671282.40641,535214.774342,LA,,70119
POINT (-90.071031221943 29.952146463083),318,226 CARONDELET ST,HAMPTON INN & SUITES DOWNTOWN,2022-03-18,4701 - HOTELS (EXC CASINO HOTELS) & MOTELS,NEW ORLEANS,3680577.63528,530289.810113,LA,,70130
POINT (-90.06303741383 29.960041277028),342,919 ROYAL ST,ANDREW JACKSON HOTEL,2013-03-27,4701 - HOTELS (EXC CASINO HOTELS) & MOTELS,NEW ORLEANS,3683077.16258,533188.62842,LA,,70116
POINT (-90.079849838051 29.962266921188),84,2011 IBERVILLE ST,JEFF DAVIS,1991-04-05,4702 - ROOMING & BOARDING HOUSES,NEW ORLEANS,3677744.83253,533939.329925,LA,,70112
POINT (-90.069962182093 29.932732602641),269,824 ORANGE ST,SEDLEY SCOTT,2024-03-20,8806 - .1(43) BED AND BREAKFAST 1 TO 2 ROOMS,NEW ORLEANS,3680993.99931,523233.958459,LA,,70130
POINT (-90.068555741174 29.953650780475),326,124 ROYAL ST,WYNDHAM NEW ORLEANS,2001-08-31,4701 - HOTELS (EXC CASINO HOTELS) & MOTELS,NEW ORLEANS,3681355.49378,530845.47949,LA,,70130
POINT (-90.082302577666 29.923620938821),9,833 6TH ST,"THE DUCHESS, LLC",2009-06-11,4703 - BED & BREAKFAST INNS,NEW ORLEANS,3677121.64686,519877.745976,LA,,70115
POINT (-90.057097408273 29.961704187299),117,405 ESPLANADE AVE,HOTEL DE LA MONNAIE OWNERS  ASSOCIATION INC,1993-05-15,4701 - HOTELS (EXC CASINO HOTELS) & MOTELS,NEW ORLEANS,3684951.26537,533814.223941,LA,,70116
POINT (-90.074982527489 29.940166645069),115,1319 ST CHARLES AVE,QUALITY INN MAISON ST CHARLES,1983-12-27,4701 - HOTELS (EXC CASINO HOTELS) & MOTELS,NEW ORLEANS,3679374.23752,525919.747901,LA,,70130
POINT (-90.063535343893 29.963545434334),93,924 GOVERNOR NICHOLLS ST,BOUGAINVILLEA HOUSE,2006-05-04,4703 - BED & BREAKFAST INNS,NEW ORLEANS,3682905.37749,534461.121989,LA,,70116
POINT (-90.073072435769 29.951785022049),250,908 UNION ST,SELINA CATAHOULA NEW ORLEANS-HOTEL,2020-02-01,4701 - HOTELS (EXC CASINO HOTELS) & MOTELS,NEW ORLEANS,3679932.70082,530151.262145,LA,,70112
POINT (-90.069902592915 29.942621917064),362,1000 MAGAZINE ST,HIGGINS HOTEL & CONFERENCE CENTER,2020-12-23,4701 - HOTELS (EXC CASINO HOTELS) & MOTELS,NEW ORLEANS,3680973.22095,526830.277182,LA,,70130
POINT (-90.063132726708 29.959981358948),114,915 ROYAL ST,CORNSTALK HOTEL,1982-07-02,4701 - HOTELS (EXC CASINO HOTELS) & MOTELS,NEW ORLEANS,3683047.22428,533166.505668,LA,001,70116
POINT (-90.05894477137 29.965216509582),97,735 TOURO ST,BOHEME DE MARIGNY,2011-10-27,4703 - BED & BREAKFAST INNS,NEW ORLEANS,3684352.1229,535084.923526,LA,,70116
POINT (-90.068396761335 29.956554025357),116,830 CONTI ST,PRINCE CONTI HOTEL,1987-08-01,4701 - HOTELS (EXC CASINO HOTELS) & MOTELS,NEW ORLEANS,3681394.18178,531901.761859,LA,B,70112-3440
POINT (-89.962052189661 30.048485634043),332,7049 BULLARD AVE,HOLIDAY INN EXPRESS,2007-07-01,4701 - HOTELS (EXC CASINO HOTELS) & MOTELS,NEW ORLEANS,3714667.98623,565718.719714,LA,,70128
POINT (-90.065964303021 29.963579152027),169,1027 N RAMPART ST,FRENCH QUARTER TOWNHOUSES HOTEL,2009-03-20,4701 - HOTELS (EXC CASINO HOTELS) & MOTELS,NEW ORLEANS,3682136.16533,534464.868485,LA,,70116
POINT (-90.10366547808 29.977181748119),182,4333 CANAL ST,HOSTEEVA,2017-04-19,4701 - HOTELS (EXC CASINO HOTELS) & MOTELS,NEW ORLEANS,3670145.81108,539281.230346,LA,,70119
POINT (-90.076989294557 29.951922709288),338,740 HEBERT DR,FEDERAL CITY INN & SUITES,2011-08-11,4701 - HOTELS (EXC CASINO HOTELS) & MOTELS,NEW ORLEANS,3678691.8167,530187.70942,LA,,70114
POINT (-90.067772010578 29.949769669811),98,330 MAGAZINE ST,VOCO ST. JAMES HOTEL,2012-07-11,4701 - HOTELS (EXC CASINO HOTELS) & MOTELS,NEW ORLEANS,3681619.25736,529436.905921,LA,,70130
POINT (-90.057262020846 29.961754347906),239,427 ESPLANADE AVE,"SONDER USA, INC",2018-12-05,4701 - HOTELS (EXC CASINO HOTELS) & MOTELS,NEW ORLEANS,3684898.94044,533831.883397,LA,,70116
POINT (-90.071058749639 29.952716686392),308,203 CARONDELET ST,HOLIDAY INN CLUB VACATIONS INCORPORATED,2020-01-01,4701 - HOTELS (EXC CASINO HOTELS) & MOTELS,NEW ORLEANS,3680566.63387,530497.068482,LA,,70130
POINT (-90.06474426314 29.940016342494),243,1201 CONVENTION CENTER BLVD,HAMPTON INN & SUITES NEW ORLEANS-CONVENTION CENTER,2020-10-26,4701 - HOTELS (EXC CASINO HOTELS) & MOTELS,NEW ORLEANS,3682617.3261,525900.845757,LA,,70130
POINT (-90.068887454719 29.952715166542),328,614 CANAL ST,JW MARRIOT NEW ORLEANS,2003-04-15,4701 - HOTELS (EXC CASINO HOTELS) & MOTELS,NEW ORLEANS,3681254.20789,530504.096514,LA,,70130
POINT (-90.076989294557 29.951922709288),260,2552 ST PHILLIP STREET,HOTEL TREMELLC,2022-01-20,4703 - BED & BREAKFAST INNS,NEW ORLEANS,3678691.8167,530187.70942,LA,,70112
POINT (-90.070234521233 29.964879283778),378,917 N VILLERE ST,PAUL COUGHLIN,2023-08-23,4703 - BED & BREAKFAST INNS,NEW ORLEANS,3680778.88245,534922.715462,LA,,70116
POINT (-90.09112066284 29.944800185207),2,2309 S CLAIBORNE AVE,MASON MOTEL INC,1993-05-01,4701 - HOTELS (EXC CASINO HOTELS) & MOTELS,NEW ORLEANS,3674244.97697,527548.905535,LA,,70125
POINT (-90.06761791601 29.952493040037),119,555 CANAL ST,NEW ORLEANS MARRIOTT HOTEL-[H/P],1993-11-06,4701 - HOTELS (EXC CASINO HOTELS) & MOTELS,NEW ORLEANS,3681657.1156,530427.761794,LA,A,70130
POINT (-90.067284209858 29.961011283063),13,1024 ST ANN ST,MARIE LAVAEAU GUEST HOUSE,2011-07-01,4701 - HOTELS (EXC CASINO HOTELS) & MOTELS,NEW ORLEANS,3681728.56309,533526.476036,LA,,70116
POINT (-90.074264422504 29.954517654569),64,1111 TULANE AVE,HOSTEEVA CALIFORNIA BUILDING BY HOSTEEVA,2018-09-01,4701 - HOTELS (EXC CASINO HOTELS) & MOTELS,NEW ORLEANS,3679544.32066,531140.798274,LA,,70112
POINT (-90.026143605871 29.92265446943),314,3350 NEVADA ST,EMANUEL & SHENAâ€™S BED & BREAKFAST,2021-09-24,4703 - BED & BREAKFAST INNS,NEW ORLEANS,3694914.26262,519724.881272,LA,,70114
POINT (-90.057884530043 29.969396371113),357,2110 MARAIS ST,LE SHACKTEAU,2019-09-23,8806 - .1(43) BED AND BREAKFAST 1 TO 2 ROOMS,NEW ORLEANS,3684670.90044,536608.611079,LA,,70116
